lat,lng,place_id,place_lat,place_lng,road,suburb,city,state,postcode,country,neighbourhood,house_number,region,address
-19.94221079102364,-43.97343557677296,240680502.0,-19.942372044984086,-43.973709308565645,Rua Indiana,Jardim América,Belo Horizonte,Minas Gerais,30421-351,Brasil,,,Região Sudeste,"Rua Indiana, Jardim América, Belo Horizonte"
-19.880775367660608,-43.90003657725472,99487668.0,-19.880790296231094,-43.89990117250517,Rua Eros,,Sabará,Minas Gerais,34700-100,Brasil,Alvorada,,Região Sudeste,"Rua Eros, Sabará"
-19.88534188040301,-43.982457055105115,95725179.0,-19.885338808501324,-43.98277054140173,Rua Desembargador Paula Mota,Engenho Nogueira,Belo Horizonte,Minas Gerais,31320-020,Brasil,Engenho Nogueira,,Região Sudeste,"Rua Desembargador Paula Mota, Engenho Nogueira, Belo Horizonte"
-19.91790529448314,-43.97061839898547,236361083.0,-19.918139676070524,-43.97062558404425,Rua Tuiuti,Padre Eustáquio,Belo Horizonte,Minas Gerais,30720-100,Brasil,,,Região Sudeste,"Rua Tuiuti, Padre Eustáquio, Belo Horizonte"
-19.89121722134994,-43.95956387152648,131853031.0,-19.89089672048121,-43.95954411640352,Rua Manuel Ferreira Leal,Aparecida 7ª Seção,Belo Horizonte,Minas Gerais,31250-050,Brasil,Aparecida 7ª Seção,,Região Sudeste,"Rua Manuel Ferreira Leal, Aparecida 7ª Seção, Belo Horizonte"
-19.91291845548385,-43.91786352813228,14152391.0,-19.9121455,-43.9174224,Rua Pouso Alegre,Santa Tereza,Belo Horizonte,Minas Gerais,31015-065,Brasil,Horto,,Região Sudeste,"Rua Pouso Alegre, Santa Tereza, Belo Horizonte"
-19.96707073495978,-43.985122044170225,12122822.0,-19.967528,-43.9846894,Rua Estrela dos Viajantes,Estrela do Oriente,Belo Horizonte,Minas Gerais,30580-250,Brasil,,,Região Sudeste,"Rua Estrela dos Viajantes, Estrela do Oriente, Belo Horizonte"
-19.93995621959005,-43.9298711141559,50161468.0,-19.9400062,-43.9297575,Rua Antero da Silveira,Carmo,Belo Horizonte,Minas Gerais,30110-035,Brasil,Carmo,,Região Sudeste,"Rua Antero da Silveira, Carmo, Belo Horizonte"
-19.88831978922388,-43.91926008695752,132071824.0,-19.888323387255962,-43.91924075286925,Rua João Chagas,União,Belo Horizonte,Minas Gerais,31035-536,Brasil,,,Região Sudeste,"Rua João Chagas, União, Belo Horizonte"
-19.88613855151164,-43.94659236294302,286023991.0,-19.88548795,-43.946734648500176,Avenida Bernardo Vasconcelos,Cachoeirinha,Belo Horizonte,Minas Gerais,31150-900,Brasil,,,Região Sudeste,"Avenida Bernardo Vasconcelos, Cachoeirinha, Belo Horizonte"
-19.916919371052067,-43.94923358293418,97215008.0,-19.916905917860998,-43.94922862526003,Via Elevada Dona Helena Greco,Carlos Prates,Belo Horizonte,Minas Gerais,30710-580,Brasil,,,Região Sudeste,"Via Elevada Dona Helena Greco, Carlos Prates, Belo Horizonte"
-19.95183869879481,-43.91031391387818,95821834.0,-19.9525888,-43.9111239,Rua Engenheiro Fernando Halfeld,Mangabeiras,Belo Horizonte,Minas Gerais,30210-550,Brasil,Mangabeiras,,Região Sudeste,"Rua Engenheiro Fernando Halfeld, Mangabeiras, Belo Horizonte"
-19.879979380796033,-43.96342918707371,97582061.0,-19.880200821275675,-43.96364241337823,Rua Batalha,São Francisco,Belo Horizonte,Minas Gerais,31255-050,Brasil,São Francisco,,Região Sudeste,"Rua Batalha, São Francisco, Belo Horizonte"
-19.9338429318082,-43.970312928735076,130851010.0,-19.933859499855192,-43.970370355690214,Rua Contendas,Alto Barroca,Belo Horizonte,Minas Gerais,30431020,Brasil,,,Região Sudeste,"Rua Contendas, Alto Barroca, Belo Horizonte"
-19.962982718555494,-43.91424088756942,125363148.0,-19.9597865,-43.91374810109558,Praça Engenheiro Flavio Gutierrez,Mangabeiras,Belo Horizonte,Minas Gerais,,Brasil,Mangabeiras,,Região Sudeste,"Praça Engenheiro Flavio Gutierrez, Mangabeiras, Belo Horizonte"
-19.955080478552514,-43.95580051790905,206163312.0,-19.954814486266,-43.95569720152847,Rua Engenheiro Sena Freire,São Bento,Belo Horizonte,Minas Gerais,30380-430,Brasil,São Bento,,Região Sudeste,"Rua Engenheiro Sena Freire, São Bento, Belo Horizonte"
-19.93121247509604,-43.95813518270504,109864263.0,-19.931151580009306,-43.958384264747686,Rua Thompson Flores,Gutierrez,Belo Horizonte,Minas Gerais,30110-062,Brasil,Gutierrez,,Região Sudeste,"Rua Thompson Flores, Gutierrez, Belo Horizonte"
-19.931653074307413,-43.98303958108039,212651209.0,-19.93166598283773,-43.983083654581115,Avenida Tereza Cristina,Gameleira,Belo Horizonte,Minas Gerais,30421-067,Brasil,,,Região Sudeste,"Avenida Tereza Cristina, Gameleira, Belo Horizonte"
-19.95612260844504,-43.92260163839025,95451138.0,-19.95563310377366,-43.92229034482104,Rua Santana de Caldas,Comiteco,Belo Horizonte,Minas Gerais,30315-382,Brasil,,,Região Sudeste,"Rua Santana de Caldas, Comiteco, Belo Horizonte"
-19.894412105380574,-43.92185550806426,223174045.0,-19.894472388110053,-43.92182158271864,Rua Conselheiro Lafaiete,Sagrada Família,Belo Horizonte,Minas Gerais,31030010,Brasil,,,Região Sudeste,"Rua Conselheiro Lafaiete, Sagrada Família, Belo Horizonte"
-19.952764934965337,-43.90269996307935,125830740.0,-19.952236300000006,-43.9049803,,Mangabeiras,Belo Horizonte,Minas Gerais,30220360,Brasil,Mangabeiras,,Região Sudeste,"Mangabeiras, Belo Horizonte"
-19.93763270258906,-43.97163494205763,99534281.0,-19.93767992961687,-43.97186058762424,Rua Angra dos Reis,Nova Granada,Belo Horizonte,Minas Gerais,30421-345,Brasil,,,Região Sudeste,"Rua Angra dos Reis, Nova Granada, Belo Horizonte"
-19.90323404564406,-43.92857763236447,98968612.0,-19.903289864806887,-43.92858531149845,Rua Costa Monteiro,Sagrada Família,Belo Horizonte,Minas Gerais,31030010,Brasil,,,Região Sudeste,"Rua Costa Monteiro, Sagrada Família, Belo Horizonte"
-19.961119406800197,-43.91254052493196,125363148.0,-19.9597865,-43.91374810109558,Praça Engenheiro Flavio Gutierrez,Mangabeiras,Belo Horizonte,Minas Gerais,,Brasil,Mangabeiras,,Região Sudeste,"Praça Engenheiro Flavio Gutierrez, Mangabeiras, Belo Horizonte"
-19.943227300578872,-43.954598599018546,217024910.0,-19.94387455,-43.95470182024204,Rua Henrique Sales,Luxemburgo,Belo Horizonte,Minas Gerais,30380-103,Brasil,,,Região Sudeste,"Rua Henrique Sales, Luxemburgo, Belo Horizonte"
-19.94645116718728,-43.94835780547841,130163584.0,-19.946539112810193,-43.94835879826318,Rua Abre Campo,Santo Antônio,Belo Horizonte,Minas Gerais,30380-728,Brasil,Santo Antônio,,Região Sudeste,"Rua Abre Campo, Santo Antônio, Belo Horizonte"
-19.964015584696753,-43.932843321333806,219121714.0,-19.9635358,-43.9329118,Trilha Belvedere Acaba Mundo,Mangabeiras,Belo Horizonte,Minas Gerais,30315-382,Brasil,,,Região Sudeste,"Trilha Belvedere Acaba Mundo, Mangabeiras, Belo Horizonte"
-19.967787459040128,-43.90666449316224,66819230.0,-19.9928736,-43.908512,,Ville de Montagne,,Minas Gerais,34004-817,Brasil,,,Região Sudeste,Ville de Montagne
-19.89433445917732,-43.96075718984454,167243178.0,-19.8942305,-43.9606928,Rua Amiro Rodrigues Campos,Aparecida 7ª Seção,Belo Horizonte,Minas Gerais,31250-160,Brasil,Aparecida 7ª Seção,,Região Sudeste,"Rua Amiro Rodrigues Campos, Aparecida 7ª Seção, Belo Horizonte"
-19.919843828615786,-43.98342002113508,99247835.0,-19.919833030679328,-43.98324919763196,Rua Ernesto Carneiro Santiago,Padre Eustáquio,Belo Horizonte,Minas Gerais,30720-410,Brasil,,,Região Sudeste,"Rua Ernesto Carneiro Santiago, Padre Eustáquio, Belo Horizonte"
-19.937336806170727,-43.93059908491721,9938702.0,-19.9368922,-43.9309032,Rua Professor Morais,Savassi,Belo Horizonte,Minas Gerais,30140-130,Brasil,Savassi,,Região Sudeste,"Rua Professor Morais, Savassi, Belo Horizonte"
-19.896163135880602,-43.91273067959563,224750465.0,-19.89664375,-43.912665588554965,Rua Santo Agostinho,Horto Florestal,Belo Horizonte,Minas Gerais,31035-340,Brasil,,1717.0,Região Sudeste,"Rua Santo Agostinho, 1717, Horto Florestal, Belo Horizonte"
-19.887794704900376,-43.922332710617894,280692719.0,-19.887860320420327,-43.9223741045909,Rua Cardeal Stepinac,Cidade Nova,Belo Horizonte,Minas Gerais,31170-210,Brasil,,,Região Sudeste,"Rua Cardeal Stepinac, Cidade Nova, Belo Horizonte"
-19.964688912099774,-43.91804868864218,156178276.0,-19.96507100478485,-43.91773581503698,,Mangabeiras,Belo Horizonte,Minas Gerais,30315-382,Brasil,,,Região Sudeste,"Mangabeiras, Belo Horizonte"
-19.89310911371778,-43.96531551640128,99562093.0,-19.89325370915737,-43.96536160784342,Rua Phi,Caiçaras,Belo Horizonte,Minas Gerais,30775-240,Brasil,,,Região Sudeste,"Rua Phi, Caiçaras, Belo Horizonte"
-19.90650668760133,-43.96107385734717,95851292.0,-19.906617327030226,-43.96106723871914,Rua Magnólia,Santo André,Belo Horizonte,Minas Gerais,30710-010,Brasil,Santo André,,Região Sudeste,"Rua Magnólia, Santo André, Belo Horizonte"
-19.951607750355024,-43.911143929768535,96278060.0,-19.9521773,-43.911557,Rua Professor Djalma Guimarães,Mangabeiras,Belo Horizonte,Minas Gerais,30210-550,Brasil,Mangabeiras,,Região Sudeste,"Rua Professor Djalma Guimarães, Mangabeiras, Belo Horizonte"
-19.90171524138344,-43.94219335451153,125539467.0,-19.901796467603184,-43.94204572600953,Rua Jundiaí,São Cristóvão,Belo Horizonte,Minas Gerais,31130-300,Brasil,,,Região Sudeste,"Rua Jundiaí, São Cristóvão, Belo Horizonte"
-19.903716736766718,-43.96268852342291,98029526.0,-19.90363495103179,-43.96279872512853,Rua Cláudio Martins,Caiçaras,Belo Horizonte,Minas Gerais,31230-250,Brasil,Caiçaras,,Região Sudeste,"Rua Cláudio Martins, Caiçaras, Belo Horizonte"
-19.8915947812042,-43.95763280384328,167618643.0,-19.8912287,-43.957536618942854,Avenida Américo Vespúcio,Ermelinda,Belo Horizonte,Minas Gerais,31250-160,Brasil,Aparecida 7ª Seção,,Região Sudeste,"Avenida Américo Vespúcio, Ermelinda, Belo Horizonte"
-19.886948212840885,-43.92600908980207,280587624.0,-19.887118668793228,-43.926110846630436,Rua Doutor Júlio Otaviano Ferreira,Cidade Nova,Belo Horizonte,Minas Gerais,31170-200,Brasil,,,Região Sudeste,"Rua Doutor Júlio Otaviano Ferreira, Cidade Nova, Belo Horizonte"
-19.898945537002014,-43.96557879104833,164606086.0,-19.89880325266764,-43.966139104803155,Avenida Presidente Carlos Luz,Caiçaras,Belo Horizonte,Minas Gerais,31230-000,Brasil,Caiçaras,,Região Sudeste,"Avenida Presidente Carlos Luz, Caiçaras, Belo Horizonte"
-19.954744782770398,-43.91994198243015,122429253.0,-19.9550967,-43.92040555,Rua Ascanio Bulamarqui,Comiteco,Belo Horizonte,Minas Gerais,30315-382,Brasil,,,Região Sudeste,"Rua Ascanio Bulamarqui, Comiteco, Belo Horizonte"
-19.950872281496466,-43.93201889489394,50333361.0,-19.9515431,-43.9327029,Rua Montevidéu,Sion,Belo Horizonte,Minas Gerais,30315-600,Brasil,,565.0,Região Sudeste,"Rua Montevidéu, 565, Sion, Belo Horizonte"
-19.88853524967497,-43.96308163309839,230285636.0,-19.888180447446228,-43.9627868122643,Rua Manuel Ferreira Leal,Vila Sumaré,Belo Horizonte,Minas Gerais,31250-050,Brasil,,,Região Sudeste,"Rua Manuel Ferreira Leal, Vila Sumaré, Belo Horizonte"
-19.943172937355648,-43.98941834678021,159924820.0,-19.943187981311095,-43.989534109254656,Rua Cândido de Souza,Vila Guaratã,Belo Horizonte,Minas Gerais,30510-070,Brasil,,,Região Sudeste,"Rua Cândido de Souza, Vila Guaratã, Belo Horizonte"
-19.898496950250415,-43.97517919092496,212240436.0,-19.898670178664666,-43.97495755469907,Rua Atílio Turci,Alto dos Caiçaras,Belo Horizonte,Minas Gerais,30775-480,Brasil,Alto dos Caiçaras,,Região Sudeste,"Rua Atílio Turci, Alto dos Caiçaras, Belo Horizonte"
-19.963351446491327,-43.91194278145289,125363148.0,-19.9597865,-43.91374810109558,Praça Engenheiro Flavio Gutierrez,Mangabeiras,Belo Horizonte,Minas Gerais,,Brasil,Mangabeiras,,Região Sudeste,"Praça Engenheiro Flavio Gutierrez, Mangabeiras, Belo Horizonte"
-19.882290372434174,-43.96985687600147,96711793.0,-19.885085402054454,-43.971182860942534,Avenida Presidente Carlos Luz,Engenho Nogueira,Belo Horizonte,Minas Gerais,31310-260,Brasil,Engenho Nogueira,,Região Sudeste,"Avenida Presidente Carlos Luz, Engenho Nogueira, Belo Horizonte"
-19.9041909249732,-43.95550413105378,230685614.0,-19.904268733952197,-43.95550214802354,Rua Pedro Lessa,Santo André,Belo Horizonte,Minas Gerais,31230-250,Brasil,Santo André,,Região Sudeste,"Rua Pedro Lessa, Santo André, Belo Horizonte"
-19.925284251071094,-43.97598112215347,269513088.0,-19.92517934799742,-43.97594723240771,,Vila Calafate,Belo Horizonte,Minas Gerais,30480240,Brasil,,,Região Sudeste,"Vila Calafate, Belo Horizonte"
-19.941252898368536,-43.92866535341809,148828526.0,-19.9417348,-43.92810125808681,Rua Ouro Fino,Cruzeiro,Belo Horizonte,Minas Gerais,30310-140,Brasil,Cruzeiro,156.0,Região Sudeste,"Rua Ouro Fino, 156, Cruzeiro, Belo Horizonte"
-19.92193131593169,-43.94911584464862,207187398.0,-19.922327300000006,-43.94983372348327,Rua dos Guajajaras,Barro Preto,Belo Horizonte,Minas Gerais,30180-101,Brasil,Barro Preto,1722.0,Região Sudeste,"Rua dos Guajajaras, 1722, Barro Preto, Belo Horizonte"
-19.91625563870785,-43.90163738047346,98809502.0,-19.91628445739667,-43.90175283246439,Rua Itaperuna,Saudade,Belo Horizonte,Minas Gerais,31230-010,Brasil,Saudade,,Região Sudeste,"Rua Itaperuna, Saudade, Belo Horizonte"
-19.962365249873205,-43.913264688022394,125363148.0,-19.9597865,-43.91374810109558,Praça Engenheiro Flavio Gutierrez,Mangabeiras,Belo Horizonte,Minas Gerais,,Brasil,Mangabeiras,,Região Sudeste,"Praça Engenheiro Flavio Gutierrez, Mangabeiras, Belo Horizonte"
-19.917934002124323,-43.94571797981836,14920040.0,-19.9182581,-43.9454193,Rua Rio Grande do Sul,Centro,Belo Horizonte,Minas Gerais,30170-110,Brasil,Centro,,Região Sudeste,"Rua Rio Grande do Sul, Centro, Belo Horizonte"
-19.932099655166688,-43.96356351052637,100146868.0,-19.93215747280022,-43.963767778525494,Rua Turfa,Barroca,Belo Horizonte,Minas Gerais,30430-180,Brasil,,,Região Sudeste,"Rua Turfa, Barroca, Belo Horizonte"
-19.9510022614101,-43.9381191867624,99693970.0,-19.95082612677716,-43.93837599513933,Rua Equador,São Pedro,Belo Horizonte,Minas Gerais,30330000,Brasil,São Pedro,,Região Sudeste,"Rua Equador, São Pedro, Belo Horizonte"
-19.917420299775433,-43.93633065595056,14667984.0,-19.9176807,-43.9360079,Avenida Amazonas,Centro,Belo Horizonte,Minas Gerais,30120-060,Brasil,Centro,,Região Sudeste,"Avenida Amazonas, Centro, Belo Horizonte"
-19.913946095348226,-43.953592896204704,156853442.0,-19.913910458104088,-43.953577508072904,Avenida Dom Pedro II,Bonfim,Belo Horizonte,Minas Gerais,30710-543,Brasil,Bonfim,,Região Sudeste,"Avenida Dom Pedro II, Bonfim, Belo Horizonte"
-19.906768040569915,-43.948560962425745,229989212.0,-19.906415593593668,-43.94846353736071,Beco Fagundes Varela,Vila Senhor dos Passos,Belo Horizonte,Minas Gerais,31210-030,Brasil,,,Região Sudeste,"Beco Fagundes Varela, Vila Senhor dos Passos, Belo Horizonte"
-19.901688093344344,-43.95930319623577,99355959.0,-19.90168451530269,-43.95929776264867,Rua Marcos de Azevedo,Nova Esperança,Belo Horizonte,Minas Gerais,31230-250,Brasil,,,Região Sudeste,"Rua Marcos de Azevedo, Nova Esperança, Belo Horizonte"
-19.914486917402726,-43.90355813398932,98503963.0,-19.914780067266552,-43.90349988015084,Rua Ouro Branco,Pompeia,Belo Horizonte,Minas Gerais,30280480,Brasil,Pompéia,,Região Sudeste,"Rua Ouro Branco, Pompeia, Belo Horizonte"
-19.919179900317584,-43.98353050444947,99247835.0,-19.91916478866689,-43.98329143792558,Rua Ernesto Carneiro Santiago,Padre Eustáquio,Belo Horizonte,Minas Gerais,30720-410,Brasil,,,Região Sudeste,"Rua Ernesto Carneiro Santiago, Padre Eustáquio, Belo Horizonte"
-19.930619957308085,-43.924647168284025,151373060.0,-19.93040548003565,-43.92459400798399,Rua dos Timbiras,Funcionários,Belo Horizonte,Minas Gerais,30150228,Brasil,,,Região Sudeste,"Rua dos Timbiras, Funcionários, Belo Horizonte"
-19.900126130862343,-43.961020391088994,111482865.0,-19.9000325,-43.9609725,Rua Promissões,Nova Esperança,Belo Horizonte,Minas Gerais,31250-810,Brasil,,,Região Sudeste,"Rua Promissões, Nova Esperança, Belo Horizonte"
-19.907245496638282,-43.95306734255322,170211592.0,-19.9072507892458,-43.95307512423213,Rua Mariana,Bonfim,Belo Horizonte,Minas Gerais,30710-543,Brasil,Bonfim,,Região Sudeste,"Rua Mariana, Bonfim, Belo Horizonte"
-19.934057919365305,-43.9026797959709,256163579.0,-19.934048517294787,-43.90260019515557,Rua Nossa Senhora de Fátima,Vila Nossa Senhora de Fátima,Belo Horizonte,Minas Gerais,30220360,Brasil,,,Região Sudeste,"Rua Nossa Senhora de Fátima, Vila Nossa Senhora de Fátima, Belo Horizonte"
-19.941990102868008,-43.92589096729829,177257156.0,-19.942941,-43.92630552194064,Rua Ouro Fino,Cruzeiro,Belo Horizonte,Minas Gerais,30310-160,Brasil,Cruzeiro,452.0,Região Sudeste,"Rua Ouro Fino, 452, Cruzeiro, Belo Horizonte"
-19.892549243914466,-43.92410834659359,133649624.0,-19.89251608512522,-43.923891028475225,Rua Irmãos Kennedy,Cidade Nova,Belo Horizonte,Minas Gerais,31170-130,Brasil,,,Região Sudeste,"Rua Irmãos Kennedy, Cidade Nova, Belo Horizonte"
-19.904562103531877,-43.95250635493756,171865517.0,-19.90421388208186,-43.95251312609325,Rua Pedro Lessa,Vila Senhor dos Passos,Belo Horizonte,Minas Gerais,31210-030,Brasil,,,Região Sudeste,"Rua Pedro Lessa, Vila Senhor dos Passos, Belo Horizonte"
-19.92596055633338,-43.920174340499365,244675550.0,-19.92557745,-43.92039878377549,Rua Álvares Maciel,Santa Efigênia,Belo Horizonte,Minas Gerais,30150-250,Brasil,Santa Efigênia,59.0,Região Sudeste,"Rua Álvares Maciel, 59, Santa Efigênia, Belo Horizonte"
-19.956964488484115,-43.91568234318829,232281073.0,-19.95696571261605,-43.915540912560644,Praça do Papa,Mangabeiras,Belo Horizonte,Minas Gerais,30210-550,Brasil,Mangabeiras,,Região Sudeste,"Praça do Papa, Mangabeiras, Belo Horizonte"
-19.906977641145197,-43.977758745838564,161754253.0,-19.90704145,-43.97786315000001,Rua Aspásia,Caiçara-Adelaide,Belo Horizonte,Minas Gerais,30720-500,Brasil,Caiçara-Adelaide,100.0,Região Sudeste,"Rua Aspásia, 100, Caiçara-Adelaide, Belo Horizonte"
-19.90721780958448,-43.95670752594141,164433574.0,-19.90710959945739,-43.95653983852956,Rua Jaguari,Bonfim,Belo Horizonte,Minas Gerais,30710-010,Brasil,Bonfim,,Região Sudeste,"Rua Jaguari, Bonfim, Belo Horizonte"
-19.88579782676527,-43.947075632174865,97225117.0,-19.885801649688602,-43.947081728394615,Avenida Bernardo Vasconcelos,Cachoeirinha,Belo Horizonte,Minas Gerais,31150-900,Brasil,,,Região Sudeste,"Avenida Bernardo Vasconcelos, Cachoeirinha, Belo Horizonte"
-19.95495289472212,-43.96082442077195,99218978.0,-19.95500914572752,-43.96090005386253,Rua 4 de Maio,Chácara Leonina,Belo Horizonte,Minas Gerais,30494170,Brasil,,,Região Sudeste,"Rua 4 de Maio, Chácara Leonina, Belo Horizonte"
-19.938290048864538,-43.922539849689855,121547880.0,-19.9386572,-43.92297393544304,Rua Professor Estêvão Pinto,Serra,Belo Horizonte,Minas Gerais,30220060,Brasil,Serra,400.0,Região Sudeste,"Rua Professor Estêvão Pinto, 400, Serra, Belo Horizonte"
-19.935791037119017,-43.93789030274761,45590014.0,-19.935821323076922,-43.937806669230774,Rua Sergipe,Savassi,Belo Horizonte,Minas Gerais,30130171,Brasil,Savassi,1074.0,Região Sudeste,"Rua Sergipe, 1074, Savassi, Belo Horizonte"
-19.931923007095165,-43.941250200335,168635630.0,-19.931581211957106,-43.94117129645284,Rua Alvarenga Peixoto,Lourdes,Belo Horizonte,Minas Gerais,30160-042,Brasil,Lourdes,,Região Sudeste,"Rua Alvarenga Peixoto, Lourdes, Belo Horizonte"
-19.960830241205773,-43.9651714482081,155488473.0,-19.960842885441977,-43.96541664101717,Rua Paulo Piedade Campos,Estoril,Belo Horizonte,Minas Gerais,30494-080,Brasil,,,Região Sudeste,"Rua Paulo Piedade Campos, Estoril, Belo Horizonte"
-19.95746087220512,-43.92303339588085,170150965.0,-19.956353221272334,-43.92352968202889,Rua Ministro Vilas Boas,Comiteco,Belo Horizonte,Minas Gerais,30315-382,Brasil,,,Região Sudeste,"Rua Ministro Vilas Boas, Comiteco, Belo Horizonte"
-19.95588656822615,-43.97183413786676,99261021.0,-19.95613675000061,-43.97175263403956,Rua José Jorge Fonte Boa,Havaí,Belo Horizonte,Minas Gerais,30555-270,Brasil,,,Região Sudeste,"Rua José Jorge Fonte Boa, Havaí, Belo Horizonte"
-19.953351052700835,-43.95612639193928,206163312.0,-19.953191993563106,-43.95606291398686,Rua Engenheiro Sena Freire,São Bento,Belo Horizonte,Minas Gerais,30380-430,Brasil,São Bento,,Região Sudeste,"Rua Engenheiro Sena Freire, São Bento, Belo Horizonte"
-19.962259470596425,-43.957446247187264,241270386.0,-19.962231411225268,-43.9573298359984,Rua Paulo Freire de Araújo,Estoril,Belo Horizonte,Minas Gerais,30494-310,Brasil,,,Região Sudeste,"Rua Paulo Freire de Araújo, Estoril, Belo Horizonte"
-19.911388389294494,-43.967282647042495,56991803.0,-19.9114797,-43.96782,Rua Cambuquira,Carlos Prates,Belo Horizonte,Minas Gerais,30770-080,Brasil,Carlos Prates,,Região Sudeste,"Rua Cambuquira, Carlos Prates, Belo Horizonte"
-19.922252335093624,-43.90794244597557,98178391.0,-19.92221842178054,-43.907946115771104,Rua Tocaios,Paraíso,Belo Horizonte,Minas Gerais,30260-260,Brasil,Paraíso,,Região Sudeste,"Rua Tocaios, Paraíso, Belo Horizonte"
-19.90189430867686,-43.959894288777676,98043893.0,-19.901927325399907,-43.95973209948657,Rua Avelino dos Santos,Nova Esperança,Belo Horizonte,Minas Gerais,31230-250,Brasil,,,Região Sudeste,"Rua Avelino dos Santos, Nova Esperança, Belo Horizonte"
-19.957090290010182,-43.92181154798895,171837424.0,-19.9576152,-43.9206275,Rua Alcides Pereira Lima,Comiteco,Belo Horizonte,Minas Gerais,30210-550,Brasil,,,Região Sudeste,"Rua Alcides Pereira Lima, Comiteco, Belo Horizonte"
-19.91774971495974,-43.94887644211506,209773969.0,-19.91770415322144,-43.94887338233287,Avenida do Contorno,Carlos Prates,Belo Horizonte,Minas Gerais,30190-081,Brasil,Barro Preto,,Região Sudeste,"Avenida do Contorno, Carlos Prates, Belo Horizonte"
-19.937498955787284,-43.90195640999584,256163579.0,-19.9375445,-43.9023073,Rua Nossa Senhora de Fátima,Vila Nossa Senhora de Fátima,Belo Horizonte,Minas Gerais,30220360,Brasil,,,Região Sudeste,"Rua Nossa Senhora de Fátima, Vila Nossa Senhora de Fátima, Belo Horizonte"
-19.918456592198666,-43.9852086678161,133702859.0,-19.9185152,-43.9853713,Rua Cumbi,Padre Eustáquio,Belo Horizonte,Minas Gerais,30730-420,Brasil,,,Região Sudeste,"Rua Cumbi, Padre Eustáquio, Belo Horizonte"
-19.906198392815405,-43.92486068926888,134830201.0,-19.906332139333085,-43.92488080945794,Rua Genoveva de Souza,Horto,Belo Horizonte,Minas Gerais,31030010,Brasil,Horto,,Região Sudeste,"Rua Genoveva de Souza, Horto, Belo Horizonte"
-19.9576949294644,-43.92557940024118,178149684.0,-19.957007311405736,-43.9258151797706,Rua Ministro Vilas Boas,Mangabeiras,Belo Horizonte,Minas Gerais,30315-382,Brasil,,,Região Sudeste,"Rua Ministro Vilas Boas, Mangabeiras, Belo Horizonte"
-19.96611744065297,-43.90896430254594,66819230.0,-19.9928736,-43.908512,,Ville de Montagne,,Minas Gerais,34004-817,Brasil,,,Região Sudeste,Ville de Montagne
-19.94328092561646,-43.95662523170692,216870602.0,-19.9427903,-43.95604020935383,Avenida Raja Gabaglia,Luxemburgo,Belo Horizonte,Minas Gerais,30380-090,Brasil,Cidade Jardim,,Região Sudeste,"Avenida Raja Gabaglia, Luxemburgo, Belo Horizonte"
-19.92451943317353,-43.982155817667376,223590548.0,-19.92467807120057,-43.98268453366671,Rua Zurick,Vila da Amizade,Belo Horizonte,Minas Gerais,30720-410,Brasil,,,Região Sudeste,"Rua Zurick, Vila da Amizade, Belo Horizonte"
-19.92351136105652,-43.944346056671826,43955705.0,-19.92372288,-43.944696203999996,Avenida Bias Fortes,Lourdes,Belo Horizonte,Minas Gerais,30170-080,Brasil,Centro,1175.0,Região Sudeste,"Avenida Bias Fortes, 1175, Lourdes, Belo Horizonte"
-19.92668360813318,-43.968237636837046,132637494.0,-19.926697515529447,-43.96828076401954,Rua Três Corações,Calafate,Belo Horizonte,Minas Gerais,30411-320,Brasil,Calafate,,Região Sudeste,"Rua Três Corações, Calafate, Belo Horizonte"
-19.92457573572116,-43.900048540490076,134938205.0,-19.92442168334005,-43.90013709554629,Rua Avelino Prudêncio da Silva,Paraíso,Belo Horizonte,Minas Gerais,30285-408,Brasil,Baleia,,Região Sudeste,"Rua Avelino Prudêncio da Silva, Paraíso, Belo Horizonte"
-19.89206973260869,-43.90891581368741,220496161.0,-19.892089906278105,-43.90906598877756,Rua Cassiterita,Ana Lúcia,Belo Horizonte,Minas Gerais,31080-057,Brasil,,,Região Sudeste,"Rua Cassiterita, Ana Lúcia, Belo Horizonte"
-19.907105917449613,-43.91251859014918,156303024.0,-19.9071959,-43.9124702,Rua Felipe Camarão,Horto,Belo Horizonte,Minas Gerais,31010-260,Brasil,Horto,,Região Sudeste,"Rua Felipe Camarão, Horto, Belo Horizonte"
-19.95346107600381,-43.93907512594547,7130599.0,-19.9532054,-43.9389832,Avenida Nossa Senhora do Carmo,São Pedro,Belo Horizonte,Minas Gerais,30330000,Brasil,Aglomerado Santa Lúcia,,Região Sudeste,"Avenida Nossa Senhora do Carmo, São Pedro, Belo Horizonte"
-19.96344837893164,-43.950134033574635,99141612.0,-19.963496476703106,-43.94992961804779,Rua Trópicos,Santa Lúcia,Belo Horizonte,Minas Gerais,30350-577,Brasil,Santa Lúcia,,Região Sudeste,"Rua Trópicos, Santa Lúcia, Belo Horizonte"
-19.91139736373396,-43.97720825490323,158208818.0,-19.91149177918638,-43.977210989470755,Rua Ramos de Azevedo,Monsenhor Messias,Belo Horizonte,Minas Gerais,30720-480,Brasil,Monsenhor Messias,,Região Sudeste,"Rua Ramos de Azevedo, Monsenhor Messias, Belo Horizonte"
-19.907379563932523,-43.962639639121825,144440198.0,-19.9074266,-43.96282105594936,Avenida Presidente Carlos Luz,Caiçaras,Belo Horizonte,Minas Gerais,30810-190,Brasil,Caiçaras,,Região Sudeste,"Avenida Presidente Carlos Luz, Caiçaras, Belo Horizonte"
-19.92682824783314,-43.95482847046414,44891069.0,-19.9269467,-43.95434210000001,Rua Gonçalves Dias,Barro Preto,Belo Horizonte,Minas Gerais,30170-041,Brasil,,3194.0,Região Sudeste,"Rua Gonçalves Dias, 3194, Barro Preto, Belo Horizonte"
-19.935386325620748,-43.9640005251555,172122655.0,-19.935857100000003,-43.9635114541893,Rua Rio Negro,Grajaú,Belo Horizonte,Minas Gerais,30430-180,Brasil,,1215.0,Região Sudeste,"Rua Rio Negro, 1215, Grajaú, Belo Horizonte"
-19.91755836645449,-43.91910484271785,269266541.0,-19.91751079071305,-43.91909025645931,,Santa Tereza,Belo Horizonte,Minas Gerais,31010-230,Brasil,Santa Tereza,,Região Sudeste,"Santa Tereza, Belo Horizonte"
-19.91336097848912,-43.94403786830165,215550717.0,-19.913397777828862,-43.94401876188977,Viaduto Sarah Kubitschek,Bonfim,Belo Horizonte,Minas Gerais,31210-120,Brasil,Bonfim,,Região Sudeste,"Viaduto Sarah Kubitschek, Bonfim, Belo Horizonte"
-19.879310635674663,-43.93272910473085,95475180.0,-19.879262271075703,-43.93268810082349,Rua Maura,Ipiranga,Belo Horizonte,Minas Gerais,31160-560,Brasil,,,Região Sudeste,"Rua Maura, Ipiranga, Belo Horizonte"
-19.947112792688394,-43.94121045295073,238711304.0,-19.94724505007089,-43.94102228923253,Rua Santo Antônio do Monte,Vila Estrela,Belo Horizonte,Minas Gerais,30330-012,Brasil,,,Região Sudeste,"Rua Santo Antônio do Monte, Vila Estrela, Belo Horizonte"
-19.949543568332373,-43.937169365684966,120460603.0,-19.949551308273595,-43.937222830505846,Rua Maldonado,São Pedro,Belo Horizonte,Minas Gerais,30315-600,Brasil,São Pedro,,Região Sudeste,"Rua Maldonado, São Pedro, Belo Horizonte"
-19.939081473916346,-43.92897916048003,45539005.0,-19.93931849846154,-43.92894685384615,Avenida do Contorno,Savassi,Belo Horizonte,Minas Gerais,30130040,Brasil,Savassi,5394.0,Região Sudeste,"Avenida do Contorno, 5394, Savassi, Belo Horizonte"
-19.921943436607865,-43.9404987654186,110697490.0,-19.92200575,-43.94005894441619,Rua dos Tupis,Centro,Belo Horizonte,Minas Gerais,30170-131,Brasil,Centro,337.0,Região Sudeste,"Rua dos Tupis, 337, Centro, Belo Horizonte"
-19.9020169779462,-43.95078009875497,202795167.0,-19.90201859397736,-43.950831977376346,Travessa Jose Laerte,Pedreira Prado Lopes,Belo Horizonte,Minas Gerais,31230-590,Brasil,,,Região Sudeste,"Travessa Jose Laerte, Pedreira Prado Lopes, Belo Horizonte"
-19.91986065556643,-43.97564332574931,99221166.0,-19.919860929228662,-43.97562984989486,Rua Castigliano,Padre Eustáquio,Belo Horizonte,Minas Gerais,30720-270,Brasil,,,Região Sudeste,"Rua Castigliano, Padre Eustáquio, Belo Horizonte"
-19.922641093912045,-43.9348768161753,56919350.0,-19.9228358,-43.9351976,Alameda do Pau Rei,Centro,Belo Horizonte,Minas Gerais,31190-000,Brasil,Centro,,Região Sudeste,"Alameda do Pau Rei, Centro, Belo Horizonte"
-19.925128747658114,-43.97867836190253,216383902.0,-19.92634235,-43.97775913694831,Rua Lindolfo Caetano,Calafate,Belo Horizonte,Minas Gerais,30480-000,Brasil,Calafate,10.0,Região Sudeste,"Rua Lindolfo Caetano, 10, Calafate, Belo Horizonte"
-19.90235366414213,-43.92188567173995,99480453.0,-19.902311495450768,-43.92216935202647,Rua Doutor Vieira Marquês,Sagrada Família,Belo Horizonte,Minas Gerais,31035-460,Brasil,,,Região Sudeste,"Rua Doutor Vieira Marquês, Sagrada Família, Belo Horizonte"
-19.917825362035074,-43.92434871037217,99298098.0,-19.918061172606002,-43.92422009342146,Rua Almandina,Santa Tereza,Belo Horizonte,Minas Gerais,30150-240,Brasil,,,Região Sudeste,"Rua Almandina, Santa Tereza, Belo Horizonte"
-19.902743540988034,-43.983154569203975,98987676.0,-19.90269870633543,-43.983150070710366,Rua Flor de Liz,Caiçara-Adelaide,Belo Horizonte,Minas Gerais,30750-170,Brasil,Caiçara-Adelaide,,Região Sudeste,"Rua Flor de Liz, Caiçara-Adelaide, Belo Horizonte"
-19.956008487874094,-43.98288689654458,280715726.0,-19.95607325388981,-43.98284892348313,,Cinquentenário,Belo Horizonte,Minas Gerais,30516-210,Brasil,,,Região Sudeste,"Cinquentenário, Belo Horizonte"
-19.881216196709765,-43.939732599958106,98384713.0,-19.88123192463574,-43.93973312551142,Rua Padre Agostinho,Santa Cruz,Belo Horizonte,Minas Gerais,31150-000,Brasil,,,Região Sudeste,"Rua Padre Agostinho, Santa Cruz, Belo Horizonte"
-19.9278428216595,-43.904825891613406,98658856.0,-19.927825515959736,-43.904706662777,Rua Émerson Peixoto,Paraíso,Belo Horizonte,Minas Gerais,30260-270,Brasil,Baleia,,Região Sudeste,"Rua Émerson Peixoto, Paraíso, Belo Horizonte"
-19.909094056877453,-43.952526963864244,170211592.0,-19.908846637119165,-43.95212780222041,Rua Mariana,Bonfim,Belo Horizonte,Minas Gerais,30710-543,Brasil,Bonfim,,Região Sudeste,"Rua Mariana, Bonfim, Belo Horizonte"
-19.88946917453324,-43.91611729336426,98791544.0,-19.8887345,-43.9143154,Rua 7,Horto Florestal,Belo Horizonte,Minas Gerais,31170-000,Brasil,,,Região Sudeste,"Rua 7, Horto Florestal, Belo Horizonte"
-19.956243140954363,-43.94722075225337,98368527.0,-19.95608972083197,-43.94719090213661,Rua Emílio Pinheiro de Barros,Santa Lúcia,Belo Horizonte,Minas Gerais,30316-110,Brasil,,,Região Sudeste,"Rua Emílio Pinheiro de Barros, Santa Lúcia, Belo Horizonte"
-19.899504287938868,-43.97672030328821,98318527.0,-19.899429372889927,-43.976903923285185,Rua Amaro Ribeiro Coelho,Alto dos Caiçaras,Belo Horizonte,Minas Gerais,30750-170,Brasil,Alto dos Caiçaras,,Região Sudeste,"Rua Amaro Ribeiro Coelho, Alto dos Caiçaras, Belo Horizonte"
-19.89649365606246,-43.99061731133813,142704332.0,-19.89650860569281,-43.99050509035426,Rua Flor D'Água,Jardim Alvorada,Belo Horizonte,Minas Gerais,30840-460,Brasil,Jardim Alvorada,,Região Sudeste,"Rua Flor D'Água, Jardim Alvorada, Belo Horizonte"
-19.90623657118628,-43.94325318125631,157773992.0,-19.9062669,-43.943399600000006,Avenida Presidente Antônio Carlos,Lagoinha,Belo Horizonte,Minas Gerais,31210-030,Brasil,,,Região Sudeste,"Avenida Presidente Antônio Carlos, Lagoinha, Belo Horizonte"
-19.946756876747266,-43.98146013294632,100832786.0,-19.946492446966698,-43.98128861092634,Rua Campina Verde,Salgado Filho,Belo Horizonte,Minas Gerais,30550000,Brasil,Salgado Filho,,Região Sudeste,"Rua Campina Verde, Salgado Filho, Belo Horizonte"
-19.886673414548074,-43.95424313097217,168818850.0,-19.886359681287146,-43.95413254654329,Rua Letícia,Nova Cachoeirinha,Belo Horizonte,Minas Gerais,31250-330,Brasil,Nova Cachoeirinha,,Região Sudeste,"Rua Letícia, Nova Cachoeirinha, Belo Horizonte"
-19.939472802142795,-43.90049573548409,157807854.0,-19.9406411062355,-43.900510832853,Estrada da Torre,Mangabeiras,Belo Horizonte,Minas Gerais,30220360,Brasil,,,Região Sudeste,"Estrada da Torre, Mangabeiras, Belo Horizonte"
-19.89502312769183,-43.91369496845922,160566827.0,-19.89518425,-43.91389030000001,Rua Gustavo da Silveira,Horto Florestal,Belo Horizonte,Minas Gerais,31170-000,Brasil,,,Região Sudeste,"Rua Gustavo da Silveira, Horto Florestal, Belo Horizonte"
-19.914000140281914,-43.91200371677851,97831964.0,-19.913805568116878,-43.9120773968481,Rua São Gotardo,Santa Tereza,Belo Horizonte,Minas Gerais,31010-260,Brasil,Santa Tereza,,Região Sudeste,"Rua São Gotardo, Santa Tereza, Belo Horizonte"
-19.884817012415727,-43.98673965289687,191837447.0,-19.88492059678045,-43.986448103646545,Rua Aluizio Davis,,Belo Horizonte,Minas Gerais,31320-020,Brasil,Ouro Preto,,Região Sudeste,"Rua Aluizio Davis, Belo Horizonte"
-19.921668735197766,-43.916202489568605,187291150.0,-19.92162252126132,-43.91623468052315,Avenida Churchill,Santa Efigênia,Belo Horizonte,Minas Gerais,30110-080,Brasil,Santa Efigênia,,Região Sudeste,"Avenida Churchill, Santa Efigênia, Belo Horizonte"
-19.95702433119616,-43.90141500095211,71692437.0,-19.9608372,-43.9045948,Avenida José do Patrocínio Fontes,Mangabeiras,Belo Horizonte,Minas Gerais,30315-382,Brasil,Mangabeiras,,Região Sudeste,"Avenida José do Patrocínio Fontes, Mangabeiras, Belo Horizonte"
-19.89260128933064,-43.935888962885635,189792021.0,-19.89260794091559,-43.93575331172353,Rua Paru,Nova Floresta,Belo Horizonte,Minas Gerais,31140-270,Brasil,Nova Floresta,,Região Sudeste,"Rua Paru, Nova Floresta, Belo Horizonte"
-19.927642480091887,-43.973197508206866,281152476.0,-19.9274314,-43.9734404052369,Rua Platina,Calafate,Belo Horizonte,Minas Gerais,30480240,Brasil,Calafate,,Região Sudeste,"Rua Platina, Calafate, Belo Horizonte"
-19.94934038672711,-43.97763153427547,98955881.0,-19.94937622163608,-43.97763577913971,Rua Jota Júnior,Salgado Filho,Belo Horizonte,Minas Gerais,30550000,Brasil,Salgado Filho,,Região Sudeste,"Rua Jota Júnior, Salgado Filho, Belo Horizonte"
-19.906707017596236,-43.92786263585921,98241378.0,-19.906765789385727,-43.92753428950481,Rua Joaquim Felicio,Sagrada Família,Belo Horizonte,Minas Gerais,31030-010‎,Brasil,,,Região Sudeste,"Rua Joaquim Felicio, Sagrada Família, Belo Horizonte"
-19.931626401613165,-43.95991054164659,169716046.0,-19.931610100000004,-43.9600251,Rua Oscar Trompowski,Gutierrez,Belo Horizonte,Minas Gerais,30441-055,Brasil,Gutierrez,,Região Sudeste,"Rua Oscar Trompowski, Gutierrez, Belo Horizonte"
-19.926770099899734,-43.89950870221747,154438150.0,-19.925524600000006,-43.896526190319655,Rua Benjamim Guimarães,Saudade,Belo Horizonte,Minas Gerais,30285-408,Brasil,Baleia,1464.0,Região Sudeste,"Rua Benjamim Guimarães, 1464, Saudade, Belo Horizonte"
-19.902609184646693,-43.9622885450451,111476248.0,-19.90238704934664,-43.962473645055255,Rua Antônio Guerra,Caiçaras,Belo Horizonte,Minas Gerais,31230-250,Brasil,Caiçaras,,Região Sudeste,"Rua Antônio Guerra, Caiçaras, Belo Horizonte"
-19.95469123001936,-43.92687661911428,98920207.0,-19.954852794672767,-43.92688418854084,Rua Zito Soares,Comiteco,Belo Horizonte,Minas Gerais,30315-382,Brasil,,,Região Sudeste,"Rua Zito Soares, Comiteco, Belo Horizonte"
-19.93307743781763,-43.98110217253878,166515761.0,-19.933153672013415,-43.98139263660366,Rua Monte Simplon,Nova Suíça,Belo Horizonte,Minas Gerais,30421-067,Brasil,,,Região Sudeste,"Rua Monte Simplon, Nova Suíça, Belo Horizonte"
-19.88252083200084,-43.93326676881731,146488001.0,-19.88234427235227,-43.93311330201281,Rua Ozanam,Ipiranga,Belo Horizonte,Minas Gerais,31160-210,Brasil,,,Região Sudeste,"Rua Ozanam, Ipiranga, Belo Horizonte"
-19.912103782467078,-43.94202599230137,210665423.0,-19.912079072585627,-43.9420374224838,,Lagoinha,Belo Horizonte,Minas Gerais,31210-120,Brasil,,,Região Sudeste,"Lagoinha, Belo Horizonte"
-19.88094035560876,-43.990524469978865,212263927.0,-19.8809795,-43.990733,,,Belo Horizonte,Minas Gerais,31330-572,Brasil,,,Região Sudeste,Belo Horizonte
-19.907723311134887,-43.91968178718769,109432633.0,-19.9083526,-43.91777797482525,Rua Pitangui,Horto,Belo Horizonte,Minas Gerais,31030010,Brasil,Horto,3230.0,Região Sudeste,"Rua Pitangui, 3230, Horto, Belo Horizonte"
-19.879549347310444,-43.958440091587306,212638547.0,-19.879770004606094,-43.95821538516539,Rua Major Delfino de Paula Ricardo,São Francisco,Belo Horizonte,Minas Gerais,31255-050,Brasil,São Francisco,,Região Sudeste,"Rua Major Delfino de Paula Ricardo, São Francisco, Belo Horizonte"
-19.96372506393968,-43.962813996701925,241635506.0,-19.96383088898289,-43.96273932827072,Rua Aspásia de Miranda Mourão,Estoril,Belo Horizonte,Minas Gerais,30494-270,Brasil,,,Região Sudeste,"Rua Aspásia de Miranda Mourão, Estoril, Belo Horizonte"
-19.945258948786584,-43.9293580227395,50730148.0,-19.9452574,-43.9293714,Rua Francisco Deslandes,Anchieta,Belo Horizonte,Minas Gerais,30310-080,Brasil,Anchieta,,Região Sudeste,"Rua Francisco Deslandes, Anchieta, Belo Horizonte"
-19.8813391085345,-43.93699202292881,98384713.0,-19.881236557800275,-43.937003119466226,Rua Padre Agostinho,Santa Cruz,Belo Horizonte,Minas Gerais,31150-000,Brasil,,,Região Sudeste,"Rua Padre Agostinho, Santa Cruz, Belo Horizonte"
-19.903287625662564,-43.98501111736509,97434148.0,-19.90326781837097,-43.98502469487888,Anel Rodoviário Celso Mello de Azevedo,Sumaré,Belo Horizonte,Minas Gerais,30750-170,Brasil,Sumaré,,Região Sudeste,"Anel Rodoviário Celso Mello de Azevedo, Sumaré, Belo Horizonte"
-19.90046686096443,-43.96612277646639,164606086.0,-19.90034591940137,-43.96654922145505,Avenida Presidente Carlos Luz,Caiçaras,Belo Horizonte,Minas Gerais,31230-000,Brasil,Caiçaras,,Região Sudeste,"Avenida Presidente Carlos Luz, Caiçaras, Belo Horizonte"
-19.880897834147135,-43.918385202404544,99089148.0,-19.88091448514463,-43.91839897660381,Rua Mendes Ribeiro,União,Belo Horizonte,Minas Gerais,31170-570,Brasil,União,,Região Sudeste,"Rua Mendes Ribeiro, União, Belo Horizonte"
-19.96736571385205,-43.96562058751253,242410043.0,-19.96707123181781,-43.965259039177056,Rua Heitor Menin,Estoril,Belo Horizonte,Minas Gerais,30455-900,Brasil,,,Região Sudeste,"Rua Heitor Menin, Estoril, Belo Horizonte"
-19.91789214952685,-43.95709714918771,109121567.0,-19.9174595,-43.956537366546,Rua Tremedal,Carlos Prates,Belo Horizonte,Minas Gerais,30710-580,Brasil,Carlos Prates,,Região Sudeste,"Rua Tremedal, Carlos Prates, Belo Horizonte"
-19.891440213647467,-43.913138306769696,160469533.0,-19.8922603,-43.91321915,Rua Gustavo da Silveira,Ana Lúcia,Belo Horizonte,Minas Gerais,31170-000,Brasil,,,Região Sudeste,"Rua Gustavo da Silveira, Ana Lúcia, Belo Horizonte"
-19.911501079665808,-43.978339069874906,158208818.0,-19.911448794252998,-43.97833690172392,Rua Ramos de Azevedo,Monsenhor Messias,Belo Horizonte,Minas Gerais,30720-480,Brasil,Monsenhor Messias,,Região Sudeste,"Rua Ramos de Azevedo, Monsenhor Messias, Belo Horizonte"
-19.897699129856907,-43.98578103252333,95520293.0,-19.897563607537226,-43.985504310204725,Rua Flor da Amizade,,Belo Horizonte,Minas Gerais,30750-170,Brasil,,,Região Sudeste,"Rua Flor da Amizade, Belo Horizonte"
-19.960585866026527,-43.953965252311,242026990.0,-19.960773271110327,-43.954296831777924,Rua Cônsul Robert Levy,São Bento,Belo Horizonte,Minas Gerais,30494-310,Brasil,São Bento,,Região Sudeste,"Rua Cônsul Robert Levy, São Bento, Belo Horizonte"
-19.942715275350672,-43.912879199713906,97676815.0,-19.942447384335814,-43.913034733408054,Rua Caraça,Serra,Belo Horizonte,Minas Gerais,30220360,Brasil,,,Região Sudeste,"Rua Caraça, Serra, Belo Horizonte"
-19.895900319310165,-43.936965182990534,198028092.0,-19.896095525249915,-43.93693264118165,Rua Jaguaribe,Nova Floresta,Belo Horizonte,Minas Gerais,31140-270,Brasil,Nova Floresta,,Região Sudeste,"Rua Jaguaribe, Nova Floresta, Belo Horizonte"
-19.940569264293067,-43.92067676270173,121154868.0,-19.94069896081396,-43.920659453785504,Rua Capivari,Serra,Belo Horizonte,Minas Gerais,30220060,Brasil,Serra,,Região Sudeste,"Rua Capivari, Serra, Belo Horizonte"
-19.935657017478228,-43.926501333158356,168073727.0,-19.935640937381137,-43.926557738937866,Rua Maranhão,Funcionários,Belo Horizonte,Minas Gerais,30110-032,Brasil,,,Região Sudeste,"Rua Maranhão, Funcionários, Belo Horizonte"
-19.88909558537797,-43.975571678108025,97234207.0,-19.888946433348032,-43.97744351309045,Rua Professor José Vieira de Mendonça,Engenho Nogueira,Belo Horizonte,Minas Gerais,31310-260,Brasil,Engenho Nogueira,,Região Sudeste,"Rua Professor José Vieira de Mendonça, Engenho Nogueira, Belo Horizonte"
-19.893143415539136,-43.957180609480325,99989941.0,-19.89302919987545,-43.95720180353463,Rua Alfa,Aparecida,Belo Horizonte,Minas Gerais,31250-160,Brasil,Aparecida,,Região Sudeste,"Rua Alfa, Aparecida, Belo Horizonte"
-19.937245451129765,-43.901896133701115,97637700.0,-19.93689860709884,-43.90218804768195,Rua São Miguel Arcanjo,Baleia,Belo Horizonte,Minas Gerais,30220360,Brasil,,,Região Sudeste,"Rua São Miguel Arcanjo, Baleia, Belo Horizonte"
-19.911628838000922,-43.95591396915793,267865612.0,-19.91161671066223,-43.955955641126394,Rua Uberlândia,Carlos Prates,Belo Horizonte,Minas Gerais,30710-543,Brasil,Carlos Prates,,Região Sudeste,"Rua Uberlândia, Carlos Prates, Belo Horizonte"
-19.911290541888487,-43.968885576040535,157181947.0,-19.91108085,-43.96903881125984,Avenida Dom Pedro II,Carlos Prates,Belo Horizonte,Minas Gerais,30720-320,Brasil,Carlos Prates,2964.0,Região Sudeste,"Avenida Dom Pedro II, 2964, Carlos Prates, Belo Horizonte"
-19.909974736588644,-43.91922521915187,127658334.0,-19.909941491817655,-43.91941736974865,Rua Alexandre Tourinho,Horto,Belo Horizonte,Minas Gerais,31015-065,Brasil,Horto,,Região Sudeste,"Rua Alexandre Tourinho, Horto, Belo Horizonte"
-19.933205928560817,-43.912089746215926,122247330.0,-19.93300672032019,-43.912323935857295,,Vila Nossa Senhora do Rosário,Belo Horizonte,Minas Gerais,30220360,Brasil,,,Região Sudeste,"Vila Nossa Senhora do Rosário, Belo Horizonte"
-19.95523396692088,-43.96740391747246,96536609.0,-19.95526057736957,-43.96747551250902,Rua Cordelina Silveira Matos,Estoril,Belo Horizonte,Minas Gerais,30494-225,Brasil,,,Região Sudeste,"Rua Cordelina Silveira Matos, Estoril, Belo Horizonte"
-19.913963084767843,-43.90116828890268,134545021.0,-19.913950062315468,-43.90118439250204,Avenida Belém,Saudade,Belo Horizonte,Minas Gerais,31230-010,Brasil,Saudade,,Região Sudeste,"Avenida Belém, Saudade, Belo Horizonte"
-19.932033495875775,-43.969618878137425,168179593.0,-19.931996486290245,-43.969463433468334,Rua Contria,Alto Barroca,Belo Horizonte,Minas Gerais,30431020,Brasil,,,Região Sudeste,"Rua Contria, Alto Barroca, Belo Horizonte"
-19.938384659653046,-43.904131878363174,217758360.0,-19.93835378036,-43.90417680344553,Rua Pedra Verde,Vila Nossa Senhora de Fátima,Belo Horizonte,Minas Gerais,30220360,Brasil,,,Região Sudeste,"Rua Pedra Verde, Vila Nossa Senhora de Fátima, Belo Horizonte"
-19.917837841964158,-43.965189232605034,179304589.0,-19.91786305957621,-43.96518187039341,Avenida Nossa Senhora de Fátima,Calafate,Belo Horizonte,Minas Gerais,30720-430,Brasil,Calafate,,Região Sudeste,"Avenida Nossa Senhora de Fátima, Calafate, Belo Horizonte"
-19.898286308952745,-43.937544767825365,97986630.0,-19.898286471370028,-43.937545043368495,Rua Jequirica,Concórdia,Belo Horizonte,Minas Gerais,31130-550,Brasil,,,Região Sudeste,"Rua Jequirica, Concórdia, Belo Horizonte"
-19.927189029900454,-43.97382176313499,281152476.0,-19.9274314,-43.9734404052369,Rua Platina,Calafate,Belo Horizonte,Minas Gerais,30480240,Brasil,Calafate,,Região Sudeste,"Rua Platina, Calafate, Belo Horizonte"
-19.937560545341285,-43.902745425620296,256163579.0,-19.937587455271675,-43.902748913043204,Rua Nossa Senhora de Fátima,Vila Nossa Senhora de Fátima,Belo Horizonte,Minas Gerais,30220360,Brasil,,,Região Sudeste,"Rua Nossa Senhora de Fátima, Vila Nossa Senhora de Fátima, Belo Horizonte"
-19.913240712998466,-43.919007455704964,98204050.0,-19.913236446103927,-43.918906753511,Rua Bauxita,Santa Tereza,Belo Horizonte,Minas Gerais,31010-230,Brasil,Santa Tereza,,Região Sudeste,"Rua Bauxita, Santa Tereza, Belo Horizonte"
-19.936276882241344,-43.97889152355781,216478727.0,-19.935929100000006,-43.978604519040346,Rua Lindolfo de Azevedo,Nova Suíça,Belo Horizonte,Minas Gerais,30460-050,Brasil,,345.0,Região Sudeste,"Rua Lindolfo de Azevedo, 345, Nova Suíça, Belo Horizonte"
-19.918164844809574,-43.928395218833494,170924622.0,-19.918339997630568,-43.928677453247786,Rua José Pedro Drumond,Floresta,Belo Horizonte,Minas Gerais,30150-090,Brasil,,,Região Sudeste,"Rua José Pedro Drumond, Floresta, Belo Horizonte"
-19.89469549762039,-43.96317507347877,97688293.0,-19.89403626190694,-43.96311481404497,Rua José Benedito Antão,Aparecida 7ª Seção,Belo Horizonte,Minas Gerais,30775-240,Brasil,Aparecida 7ª Seção,,Região Sudeste,"Rua José Benedito Antão, Aparecida 7ª Seção, Belo Horizonte"
-19.88171829507936,-43.91494123913976,278209076.0,-19.88172786641137,-43.91494975169668,Avenida Pastor Anselmo Silvestre,Dom Joaquim,Belo Horizonte,Minas Gerais,31080-340,Brasil,Dom Joaquim,,Região Sudeste,"Avenida Pastor Anselmo Silvestre, Dom Joaquim, Belo Horizonte"
-19.950795356618432,-43.955783032848615,235872720.0,-19.950844704451328,-43.95593214280512,Rua Vinicius de Morais,Luxemburgo,Belo Horizonte,Minas Gerais,30380-430,Brasil,,,Região Sudeste,"Rua Vinicius de Morais, Luxemburgo, Belo Horizonte"
-19.962206372031567,-43.90482697045884,71692437.0,-19.9608372,-43.9045948,Avenida José do Patrocínio Fontes,Mangabeiras,Belo Horizonte,Minas Gerais,30315-382,Brasil,Mangabeiras,,Região Sudeste,"Avenida José do Patrocínio Fontes, Mangabeiras, Belo Horizonte"
-19.87878411113674,-43.95785634769657,212638547.0,-19.879069751640348,-43.957549534880656,Rua Major Delfino de Paula Ricardo,São Francisco,Belo Horizonte,Minas Gerais,31255-050,Brasil,São Francisco,,Região Sudeste,"Rua Major Delfino de Paula Ricardo, São Francisco, Belo Horizonte"
-19.95437402567283,-43.990135983871966,98873635.0,-19.95432203971328,-43.99007902147852,Rua Herculano Mourão Salazar,Vila Vista Alegre,Belo Horizonte,Minas Gerais,30514-510,Brasil,,,Região Sudeste,"Rua Herculano Mourão Salazar, Vila Vista Alegre, Belo Horizonte"
-19.927991978694532,-43.92665287193703,14433327.0,-19.9284178,-43.9264511,Avenida Carandaí,Santa Efigênia,Belo Horizonte,Minas Gerais,30140001,Brasil,São Lucas,,Região Sudeste,"Avenida Carandaí, Santa Efigênia, Belo Horizonte"
-19.9447401281127,-43.93710991133505,168365967.0,-19.94468755828407,-43.9372912951257,Rua Lavras,São Pedro,Belo Horizonte,Minas Gerais,30330-050,Brasil,São Pedro,,Região Sudeste,"Rua Lavras, São Pedro, Belo Horizonte"
-19.951048455351,-43.97632497751563,100588818.0,-19.950674600629828,-43.97645013659505,Rua Papoula Azul,Havaí,Belo Horizonte,Minas Gerais,30555-270,Brasil,,,Região Sudeste,"Rua Papoula Azul, Havaí, Belo Horizonte"
-19.94757414246606,-43.91134774813109,132387177.0,-19.945686,-43.9108098,Estrada da Ferrobel,Mangabeiras,Belo Horizonte,Minas Gerais,30220360,Brasil,,,Região Sudeste,"Estrada da Ferrobel, Mangabeiras, Belo Horizonte"
-19.94019959297498,-43.9211018684894,121154868.0,-19.9402928,-43.9210894,Rua Capivari,Serra,Belo Horizonte,Minas Gerais,30220060,Brasil,Serra,,Região Sudeste,"Rua Capivari, Serra, Belo Horizonte"
-19.90259482809461,-43.97602508604146,230735131.0,-19.90259459572652,-43.97601451896218,Rua Atlântida,Caiçara-Adelaide,Belo Horizonte,Minas Gerais,30720-476,Brasil,Caiçara-Adelaide,,Região Sudeste,"Rua Atlântida, Caiçara-Adelaide, Belo Horizonte"
-19.88095917322686,-43.95142162424647,162970685.0,-19.88096562874217,-43.951439615966045,BRT MOVE,São Francisco,Belo Horizonte,Minas Gerais,31270-700,Brasil,São Francisco,,Região Sudeste,"BRT MOVE, São Francisco, Belo Horizonte"
-19.916160343271827,-43.93843095678928,45385872.0,-19.9164762,-43.9391865,Rua São Paulo,Centro,Belo Horizonte,Minas Gerais,30160-909,Brasil,Centro,325.0,Região Sudeste,"Rua São Paulo, 325, Centro, Belo Horizonte"
-19.88802167229161,-43.96756450917737,284781172.0,-19.89028825,-43.9678890901101,Avenida Presidente Carlos Luz,Caiçaras,Belo Horizonte,Minas Gerais,30775-240,Brasil,Sumaré,3001.0,Região Sudeste,"Avenida Presidente Carlos Luz, 3001, Caiçaras, Belo Horizonte"
-19.963288961296662,-43.96786985521656,131860696.0,-19.963538101605963,-43.967964521027724,Rua Manila,Havaí,Belo Horizonte,Minas Gerais,30570350,Brasil,,,Região Sudeste,"Rua Manila, Havaí, Belo Horizonte"
-19.90857004458428,-43.90560128879326,99375806.0,-19.908614718614444,-43.90550235571428,Rua Francisco Lobo,Esplanada,Belo Horizonte,Minas Gerais,30280480,Brasil,Esplanada,,Região Sudeste,"Rua Francisco Lobo, Esplanada, Belo Horizonte"
-19.884995819423875,-43.96935211082239,96711793.0,-19.885819677650414,-43.97024849085996,Avenida Presidente Carlos Luz,Engenho Nogueira,Belo Horizonte,Minas Gerais,31310-260,Brasil,Engenho Nogueira,,Região Sudeste,"Avenida Presidente Carlos Luz, Engenho Nogueira, Belo Horizonte"
-19.88820374569549,-43.91339822542543,325081050.0,-19.88832629206496,-43.91269720140274,Rua Gustavo da Silveira,Ana Lúcia,Belo Horizonte,Minas Gerais,31170-000,Brasil,,,Região Sudeste,"Rua Gustavo da Silveira, Ana Lúcia, Belo Horizonte"
-19.93151215010661,-43.94880903226517,109067029.0,-19.93163105,-43.948898118233785,Rua Martim de Carvalho,Santo Agostinho,Belo Horizonte,Minas Gerais,30170-008,Brasil,Santo Agostinho,,Região Sudeste,"Rua Martim de Carvalho, Santo Agostinho, Belo Horizonte"
-19.96358012717761,-43.975988335055504,131843474.0,-19.963633663208768,-43.975632560530606,Rua Marcos Coelho Neto,Havaí,Belo Horizonte,Minas Gerais,30570360,Brasil,,,Região Sudeste,"Rua Marcos Coelho Neto, Havaí, Belo Horizonte"
-19.919736037016303,-43.938568883726425,42467031.0,-19.9194454,-43.9385987,Avenida Afonso Pena,Centro,Belo Horizonte,Minas Gerais,30130-905,Brasil,Centro,,Região Sudeste,"Avenida Afonso Pena, Centro, Belo Horizonte"
-19.90609082152957,-43.94264701121728,129384540.0,-19.90626661095585,-43.94290779063453,Rua Diamantina,Colégio Batista,Belo Horizonte,Minas Gerais,31210-030,Brasil,,,Região Sudeste,"Rua Diamantina, Colégio Batista, Belo Horizonte"
-19.95365295152648,-43.92442504091672,97186542.0,-19.95364782971016,-43.924473806374884,Rua Julio Vidal,Comiteco,Belo Horizonte,Minas Gerais,30310-530,Brasil,,,Região Sudeste,"Rua Julio Vidal, Comiteco, Belo Horizonte"
-19.894489275320424,-43.901441572417795,267894051.0,-19.89435501749536,-43.901623388159244,Rua Ernesto Austin,Boa Vista,Belo Horizonte,Minas Gerais,31060-470,Brasil,Boa Vista,,Região Sudeste,"Rua Ernesto Austin, Boa Vista, Belo Horizonte"
-19.92178547863435,-43.98105788584928,177381383.0,-19.92182613281292,-43.98105896219843,Rua Vereador Geraldo Pereira,Padre Eustáquio,Belo Horizonte,Minas Gerais,30720-410,Brasil,,,Região Sudeste,"Rua Vereador Geraldo Pereira, Padre Eustáquio, Belo Horizonte"
-19.93367963917825,-43.95344008885433,14119809.0,-19.9336888,-43.9528485,Avenida do Contorno,Santo Agostinho,Belo Horizonte,Minas Gerais,30441-025,Brasil,Santo Agostinho,,Região Sudeste,"Avenida do Contorno, Santo Agostinho, Belo Horizonte"
-19.912936831131066,-43.95789023328085,277657236.0,-19.912933254103702,-43.95790220100172,Rua Brasília,Carlos Prates,Belo Horizonte,Minas Gerais,30710-350,Brasil,Carlos Prates,,Região Sudeste,"Rua Brasília, Carlos Prates, Belo Horizonte"
-19.90749185050743,-43.941153931639754,97462474.0,-19.90734247789748,-43.94128383011465,Rua Maria de Melo,Lagoinha,Belo Horizonte,Minas Gerais,31210-030,Brasil,,,Região Sudeste,"Rua Maria de Melo, Lagoinha, Belo Horizonte"
-19.882873288720226,-43.91248517530715,97459896.0,-19.882889689751035,-43.91253104779207,Rua Timóteo,Ana Lúcia,Belo Horizonte,Minas Gerais,31080-340,Brasil,,,Região Sudeste,"Rua Timóteo, Ana Lúcia, Belo Horizonte"
-19.948918202036413,-43.912444780083554,169577022.0,-19.9500008,-43.9130241,Rua Engenheiro Bady Salum,Mangabeiras,Belo Horizonte,Minas Gerais,30210-550,Brasil,Mangabeiras,,Região Sudeste,"Rua Engenheiro Bady Salum, Mangabeiras, Belo Horizonte"
-19.900249425659347,-43.90528569178339,325148169.0,-19.90027275578336,-43.905239104878476,Avenida Pastor Anselmo Silvestre,São Geraldo,Belo Horizonte,Minas Gerais,31060-470,Brasil,São Geraldo,,Região Sudeste,"Avenida Pastor Anselmo Silvestre, São Geraldo, Belo Horizonte"
-19.93553518051148,-43.94225268165024,280798403.0,-19.93591925,-43.942207715144214,Rua Espírito Santo,Lourdes,Belo Horizonte,Minas Gerais,30112-000,Brasil,Lourdes,2424.0,Região Sudeste,"Rua Espírito Santo, 2424, Lourdes, Belo Horizonte"
-19.943048886739703,-43.96147077413452,230723808.0,-19.9431431,-43.961612,Beco da Liberdade,Vila São Jorge 2ª Seção,Belo Horizonte,Minas Gerais,30451-225,Brasil,,,Região Sudeste,"Beco da Liberdade, Vila São Jorge 2ª Seção, Belo Horizonte"
-19.886023584748443,-43.97983431571724,98902400.0,-19.8841536,-43.979852467331135,Rua Maria Abdala Ibrahim,Engenho Nogueira,Belo Horizonte,Minas Gerais,31310-260,Brasil,Engenho Nogueira,,Região Sudeste,"Rua Maria Abdala Ibrahim, Engenho Nogueira, Belo Horizonte"
-19.893109067668,-43.968456393806775,97302706.0,-19.893143450724658,-43.968310736043996,Rua Dimas Gonçalves Medeiros,Caiçaras,Belo Horizonte,Minas Gerais,30775-240,Brasil,,,Região Sudeste,"Rua Dimas Gonçalves Medeiros, Caiçaras, Belo Horizonte"
-19.88565785037586,-43.961678590980604,131932314.0,-19.88564046067597,-43.961801421642654,Rua Rodrigues do Prado,Ermelinda,Belo Horizonte,Minas Gerais,31250-050,Brasil,Ermelinda,,Região Sudeste,"Rua Rodrigues do Prado, Ermelinda, Belo Horizonte"
-19.887863270441308,-43.972581215032044,158809061.0,-19.88884337907581,-43.97183004796335,Anel Rodoviário Celso Mello de Azevedo,Engenho Nogueira,Belo Horizonte,Minas Gerais,30775-240,Brasil,Engenho Nogueira,,Região Sudeste,"Anel Rodoviário Celso Mello de Azevedo, Engenho Nogueira, Belo Horizonte"
-19.918956630196828,-43.95149076300581,289080454.0,-19.919858540384613,-43.95171277884616,Rua dos Goitacazes,Barro Preto,Belo Horizonte,Minas Gerais,30190-081,Brasil,Barro Preto,1581.0,Região Sudeste,"Rua dos Goitacazes, 1581, Barro Preto, Belo Horizonte"
-19.89652260941648,-43.952865314019384,99395020.0,-19.89630611202667,-43.95287951766417,Rua Vassouras,Senhor Bom Jesus,Belo Horizonte,Minas Gerais,31230-590,Brasil,Senhor Bom Jesus,,Região Sudeste,"Rua Vassouras, Senhor Bom Jesus, Belo Horizonte"
-19.920953659807843,-43.96035036438653,180137179.0,-19.92105445,-43.96224483891228,Rua Diabase,Prado,Belo Horizonte,Minas Gerais,30411-073,Brasil,Prado,200.0,Região Sudeste,"Rua Diabase, 200, Prado, Belo Horizonte"
-19.897184715008173,-43.98681698600761,212513920.0,-19.897274205582484,-43.98658178453107,Rua Flor da Viuva,Jardim Alvorada,Belo Horizonte,Minas Gerais,30750-170,Brasil,Jardim Alvorada,,Região Sudeste,"Rua Flor da Viuva, Jardim Alvorada, Belo Horizonte"
-19.939868648520093,-43.95339079499771,216079616.0,-19.9397478,-43.95364945,Avenida Raja Gabaglia,Cidade Jardim,Belo Horizonte,Minas Gerais,30380-090,Brasil,Cidade Jardim,,Região Sudeste,"Avenida Raja Gabaglia, Cidade Jardim, Belo Horizonte"
-19.926997322046038,-43.92143065999941,187121164.0,-19.9266285,-43.92093093525477,Rua Manaus,Santa Efigênia,Belo Horizonte,Minas Gerais,30150-270,Brasil,São Lucas,467.0,Região Sudeste,"Rua Manaus, 467, Santa Efigênia, Belo Horizonte"
-19.888382506404128,-43.94038377138949,173446564.0,-19.888409609729678,-43.94038631833665,Rua Descalvado,Renascença,Belo Horizonte,Minas Gerais,31130-550,Brasil,,,Região Sudeste,"Rua Descalvado, Renascença, Belo Horizonte"
-19.959137313262765,-43.9837129728088,217276175.0,-19.959154713330594,-43.98373531887708,Rua Emídio Beruto,Cinquentenário,Belo Horizonte,Minas Gerais,30516-210,Brasil,,,Região Sudeste,"Rua Emídio Beruto, Cinquentenário, Belo Horizonte"
-19.90779192458091,-43.946306598216246,97450259.0,-19.90761622317132,-43.946460452239116,Rua Turvo,Lagoinha,Belo Horizonte,Minas Gerais,31210-030,Brasil,,,Região Sudeste,"Rua Turvo, Lagoinha, Belo Horizonte"
-19.912056007397688,-43.91720961615328,14152391.0,-19.9121455,-43.9174224,Rua Pouso Alegre,Santa Tereza,Belo Horizonte,Minas Gerais,31015-065,Brasil,Horto,,Região Sudeste,"Rua Pouso Alegre, Santa Tereza, Belo Horizonte"
-19.954213158042574,-43.95042149693551,170640964.0,-19.95421490242996,-43.95030914486739,Avenida Consul Antônio Cadar,São Bento,Belo Horizonte,Minas Gerais,30316-110,Brasil,,,Região Sudeste,"Avenida Consul Antônio Cadar, São Bento, Belo Horizonte"
-19.897605296525462,-43.96073884837415,213219606.0,-19.89778127463412,-43.960731629969,Rua Saracá,Nova Esperança,Belo Horizonte,Minas Gerais,31250-810,Brasil,,,Região Sudeste,"Rua Saracá, Nova Esperança, Belo Horizonte"
-19.88468159553864,-43.90469538229327,134395439.0,-19.88465565987085,-43.904777503798826,Rua Cornélio Procópio,Nova Vista,Belo Horizonte,Minas Gerais,34710-230,Brasil,Nova Vista,,Região Sudeste,"Rua Cornélio Procópio, Nova Vista, Belo Horizonte"
-19.95173819993669,-43.98241039699397,244446487.0,-19.951733979482032,-43.98239736303674,Rua Úrsula Paulino,Cinquentenário,Belo Horizonte,Minas Gerais,30550000,Brasil,,,Região Sudeste,"Rua Úrsula Paulino, Cinquentenário, Belo Horizonte"
-19.937660068274575,-43.91567411667617,155414787.0,-19.937665874812573,-43.915472711401556,Beco Brista,Vila Nossa Senhora da Conceição,Belo Horizonte,Minas Gerais,30220360,Brasil,,,Região Sudeste,"Beco Brista, Vila Nossa Senhora da Conceição, Belo Horizonte"
-19.936889208809266,-43.94108938532413,156062589.0,-19.936242,-43.94156972469325,Rua Antônio de Albuquerque,Lourdes,Belo Horizonte,Minas Gerais,30160-019,Brasil,Lourdes,,Região Sudeste,"Rua Antônio de Albuquerque, Lourdes, Belo Horizonte"
-19.923462801478575,-43.98206271769227,178596798.0,-19.92342925,-43.982272444833505,Avenida Tereza Cristina,Calafate,Belo Horizonte,Minas Gerais,30720-410,Brasil,,,Região Sudeste,"Avenida Tereza Cristina, Calafate, Belo Horizonte"
-19.936202038009913,-43.949762226363156,98488136.0,-19.936154457889085,-43.94996008854104,Rua Eduardo Porto,Cidade Jardim,Belo Horizonte,Minas Gerais,30160-041,Brasil,Cidade Jardim,,Região Sudeste,"Rua Eduardo Porto, Cidade Jardim, Belo Horizonte"
-19.92803465073939,-43.95477936508772,44925141.0,-19.9285136,-43.9550943,Avenida Amazonas,Santo Agostinho,Belo Horizonte,Minas Gerais,30110-062,Brasil,Santo Agostinho,2431.0,Região Sudeste,"Avenida Amazonas, 2431, Santo Agostinho, Belo Horizonte"
-19.953284396021555,-43.95590245337391,206163312.0,-19.95325992782292,-43.955892688507994,Rua Engenheiro Sena Freire,São Bento,Belo Horizonte,Minas Gerais,30380-430,Brasil,São Bento,,Região Sudeste,"Rua Engenheiro Sena Freire, São Bento, Belo Horizonte"
-19.918006817458348,-43.94524091868431,14920040.0,-19.9182581,-43.9454193,Rua Rio Grande do Sul,Centro,Belo Horizonte,Minas Gerais,30170-110,Brasil,Centro,,Região Sudeste,"Rua Rio Grande do Sul, Centro, Belo Horizonte"
-19.952603404361643,-43.922138960401774,96786214.0,-19.952563892497626,-43.92211524888216,Rua Odilon Braga,Comiteco,Belo Horizonte,Minas Gerais,30310-530,Brasil,,,Região Sudeste,"Rua Odilon Braga, Comiteco, Belo Horizonte"
-19.947784139723748,-43.90878650862497,132387177.0,-19.94587838736293,-43.9089663209039,Estrada da Ferrobel,Mangabeiras,Belo Horizonte,Minas Gerais,30220360,Brasil,,,Região Sudeste,"Estrada da Ferrobel, Mangabeiras, Belo Horizonte"
-19.92187960635736,-43.946415261912406,171817275.0,-19.9215531,-43.946472944944105,Rua Rio Grande do Sul,Barro Preto,Belo Horizonte,Minas Gerais,30170-110,Brasil,Barro Preto,604.0,Região Sudeste,"Rua Rio Grande do Sul, 604, Barro Preto, Belo Horizonte"
-19.96230112522331,-43.975170073771324,131843474.0,-19.962269476112496,-43.97545843463328,Rua Marcos Coelho Neto,Havaí,Belo Horizonte,Minas Gerais,30570360,Brasil,,,Região Sudeste,"Rua Marcos Coelho Neto, Havaí, Belo Horizonte"
-19.912356030482886,-43.972488276042355,179235661.0,-19.9120599,-43.97231432161319,Avenida Dom Pedro II,Carlos Prates,Belo Horizonte,Minas Gerais,30720-460,Brasil,,3250.0,Região Sudeste,"Avenida Dom Pedro II, 3250, Carlos Prates, Belo Horizonte"
-19.90035005321455,-43.95786743132948,143578061.0,-19.90038824355008,-43.957866185455664,Rua Recife,Nova Esperança,Belo Horizonte,Minas Gerais,31230-250,Brasil,,,Região Sudeste,"Rua Recife, Nova Esperança, Belo Horizonte"
-19.8869529684548,-43.945890748266,97225117.0,-19.8868309297912,-43.94582621628371,Avenida Bernardo Vasconcelos,Cachoeirinha,Belo Horizonte,Minas Gerais,31150-900,Brasil,,,Região Sudeste,"Avenida Bernardo Vasconcelos, Cachoeirinha, Belo Horizonte"
-19.890281676297626,-43.9860492139356,269054964.0,-19.890277181889825,-43.98605963159137,Rua Guiomar Paranhos,Jardim Alvorada,Belo Horizonte,Minas Gerais,31310-260,Brasil,Ouro Preto,,Região Sudeste,"Rua Guiomar Paranhos, Jardim Alvorada, Belo Horizonte"
-19.893827154388553,-43.91073336195336,325081048.0,-19.89384710319732,-43.91079504886704,Rua Timóteo,Ana Lúcia,Belo Horizonte,Minas Gerais,31080-057,Brasil,,,Região Sudeste,"Rua Timóteo, Ana Lúcia, Belo Horizonte"
-19.92847187870308,-43.951992121142396,216905657.0,-19.9283065,-43.95178944999999,Rua Ouro Preto,Santo Agostinho,Belo Horizonte,Minas Gerais,30170-041,Brasil,Santo Agostinho,1161.0,Região Sudeste,"Rua Ouro Preto, 1161, Santo Agostinho, Belo Horizonte"
-19.946206885064303,-43.950253367852135,14017161.0,-19.9463887,-43.9497544,Rua Gentios,Coração de Jesus,Belo Horizonte,Minas Gerais,30380-728,Brasil,,,Região Sudeste,"Rua Gentios, Coração de Jesus, Belo Horizonte"
-19.897753949194573,-43.948491319061965,158625277.0,-19.89762796104743,-43.948356903721574,Avenida Presidente Antônio Carlos,Aparecida,Belo Horizonte,Minas Gerais,31230-590,Brasil,,,Região Sudeste,"Avenida Presidente Antônio Carlos, Aparecida, Belo Horizonte"
-19.91832561095832,-43.9568725093962,96098547.0,-19.91858955464445,-43.956753671920545,Avenida Tereza Cristina,Carlos Prates,Belo Horizonte,Minas Gerais,30411-073,Brasil,,,Região Sudeste,"Avenida Tereza Cristina, Carlos Prates, Belo Horizonte"
-19.919062389894926,-43.93890067688543,126633727.0,-19.919105337430324,-43.93887642567194,Avenida Amazonas,Centro,Belo Horizonte,Minas Gerais,30160-909,Brasil,Centro,,Região Sudeste,"Avenida Amazonas, Centro, Belo Horizonte"
-19.9460156605571,-43.97753794853968,100763183.0,-19.946194618393992,-43.977699092424174,Rua Águas Formosas,Salgado Filho,Belo Horizonte,Minas Gerais,30421-351,Brasil,Salgado Filho,,Região Sudeste,"Rua Águas Formosas, Salgado Filho, Belo Horizonte"
-19.956750200707052,-43.94748114315285,131280355.0,-19.956804144071725,-43.94744309060729,Rua Professora Arlete Soares de Oliveira,Santa Lúcia,Belo Horizonte,Minas Gerais,30316-110,Brasil,,,Região Sudeste,"Rua Professora Arlete Soares de Oliveira, Santa Lúcia, Belo Horizonte"
-19.940896290463122,-43.93057962735977,44720506.0,-19.941485320560748,-43.93094024579439,Rua Outono,Carmo,Belo Horizonte,Minas Gerais,30330-000,Brasil,Carmo,350.0,Região Sudeste,"Rua Outono, 350, Carmo, Belo Horizonte"
-19.92609926403777,-43.90761234569147,278264503.0,-19.925881908242687,-43.9076365660429,Rua Horizonte,Paraíso,Belo Horizonte,Minas Gerais,30260-270,Brasil,Baleia,,Região Sudeste,"Rua Horizonte, Paraíso, Belo Horizonte"
-19.96001210181112,-43.904387064855776,71692437.0,-19.9608372,-43.9045948,Avenida José do Patrocínio Fontes,Mangabeiras,Belo Horizonte,Minas Gerais,30315-382,Brasil,Mangabeiras,,Região Sudeste,"Avenida José do Patrocínio Fontes, Mangabeiras, Belo Horizonte"
-19.92724675482771,-43.93094103774832,110719078.0,-19.92700285,-43.93144375,Rua Paraíba,Santa Efigênia,Belo Horizonte,Minas Gerais,30130-100,Brasil,,,Região Sudeste,"Rua Paraíba, Santa Efigênia, Belo Horizonte"
-19.878669602642862,-43.9598782687481,268692411.0,-19.87855330716448,-43.96000057054039,Rua Estoril,São Francisco,Belo Horizonte,Minas Gerais,31255-050,Brasil,São Francisco,,Região Sudeste,"Rua Estoril, São Francisco, Belo Horizonte"
-19.926258000113567,-43.98497628604376,222910851.0,-19.9251534,-43.98474604832881,Rua Craveiro Lopes,Coração Eucarístico,Belo Horizonte,Minas Gerais,30411-570,Brasil,Coração Eucarístico,,Região Sudeste,"Rua Craveiro Lopes, Coração Eucarístico, Belo Horizonte"
-19.963374204995805,-43.90413729671329,71692437.0,-19.9608372,-43.9045948,Avenida José do Patrocínio Fontes,Mangabeiras,Belo Horizonte,Minas Gerais,30315-382,Brasil,Mangabeiras,,Região Sudeste,"Avenida José do Patrocínio Fontes, Mangabeiras, Belo Horizonte"
-19.95488455923572,-43.94854949899913,239973526.0,-19.95461881219201,-43.9485524018536,Rua Professor José Renault,São Bento,Belo Horizonte,Minas Gerais,30316-110,Brasil,São Bento,,Região Sudeste,"Rua Professor José Renault, São Bento, Belo Horizonte"
-19.928747389826878,-43.95160727436164,202665653.0,-19.92867225,-43.9516245,Rua Alvarenga Peixoto,Santo Agostinho,Belo Horizonte,Minas Gerais,30170-041,Brasil,Santo Agostinho,,Região Sudeste,"Rua Alvarenga Peixoto, Santo Agostinho, Belo Horizonte"
-19.897684870851933,-43.94728078941333,176801982.0,-19.89769031520253,-43.947349370081824,Rua Amadeu Quaglia,São Cristóvão,Belo Horizonte,Minas Gerais,31230-590,Brasil,,,Região Sudeste,"Rua Amadeu Quaglia, São Cristóvão, Belo Horizonte"
-19.91307893628495,-43.98829359575559,157696242.0,-19.913077508791986,-43.988295045810936,Rua Pelotas,Padre Eustáquio,Belo Horizonte,Minas Gerais,30730-540,Brasil,,,Região Sudeste,"Rua Pelotas, Padre Eustáquio, Belo Horizonte"
-19.8994796007653,-43.92978855674118,99638210.0,-19.899532473628174,-43.929808868348076,Rua São Bento,Graça,Belo Horizonte,Minas Gerais,31140-060,Brasil,,,Região Sudeste,"Rua São Bento, Graça, Belo Horizonte"
-19.938198318105247,-43.9898796165185,204712720.0,-19.9378782,-43.989655610955296,Rua Vereador Júlio Ferreira,Nova Gameleira,Belo Horizonte,Minas Gerais,30510090,Brasil,,180.0,Região Sudeste,"Rua Vereador Júlio Ferreira, 180, Nova Gameleira, Belo Horizonte"
-19.962717502202626,-43.914242089188186,125363148.0,-19.9597865,-43.91374810109558,Praça Engenheiro Flavio Gutierrez,Mangabeiras,Belo Horizonte,Minas Gerais,,Brasil,Mangabeiras,,Região Sudeste,"Praça Engenheiro Flavio Gutierrez, Mangabeiras, Belo Horizonte"
-19.94561724760813,-43.91286067079452,132387177.0,-19.9453236,-43.913071,Estrada da Ferrobel,Mangabeiras,Belo Horizonte,Minas Gerais,30220360,Brasil,,,Região Sudeste,"Estrada da Ferrobel, Mangabeiras, Belo Horizonte"
-19.89503120103252,-43.94787996173094,98825454.0,-19.894810274324765,-43.94774635106523,Rua Jacinto Vieira,Cachoeirinha,Belo Horizonte,Minas Gerais,31230-590,Brasil,,,Região Sudeste,"Rua Jacinto Vieira, Cachoeirinha, Belo Horizonte"
-19.880451135129217,-43.909519285490106,220525951.0,-19.88029881382516,-43.90953884207557,Rua Marilac,Ana Lúcia,Belo Horizonte,Minas Gerais,31080255,Brasil,,,Região Sudeste,"Rua Marilac, Ana Lúcia, Belo Horizonte"
-19.891763038310607,-43.96242030292321,99285139.0,-19.891686554960632,-43.96250258903191,Rua Santa Judite,Aparecida 7ª Seção,Belo Horizonte,Minas Gerais,31250-050,Brasil,Aparecida 7ª Seção,,Região Sudeste,"Rua Santa Judite, Aparecida 7ª Seção, Belo Horizonte"
-19.932966151952513,-43.90669594358611,154987148.0,-19.93296869774002,-43.906706825746795,Avenida Jefferson Coelho da Silva,Vila Nossa Senhora de Fátima,Belo Horizonte,Minas Gerais,30220360,Brasil,,,Região Sudeste,"Avenida Jefferson Coelho da Silva, Vila Nossa Senhora de Fátima, Belo Horizonte"
-19.930457415600287,-43.91958146648616,171243413.0,-19.930481040921094,-43.91953558845482,Rua Monte Alegre,São Lucas,Belo Horizonte,Minas Gerais,30220-000,Brasil,,,Região Sudeste,"Rua Monte Alegre, São Lucas, Belo Horizonte"
-19.94500726935007,-43.956575532869216,215195645.0,-19.9448474,-43.956599538495084,Avenida Raja Gabaglia,Cidade Jardim,Belo Horizonte,Minas Gerais,30380-090,Brasil,,1093.0,Região Sudeste,"Avenida Raja Gabaglia, 1093, Cidade Jardim, Belo Horizonte"
-19.885347597581983,-43.931034762312315,95689845.0,-19.885536214347926,-43.931205553488226,Rua José Clemente Pereira,Ipiranga,Belo Horizonte,Minas Gerais,31160-210,Brasil,,,Região Sudeste,"Rua José Clemente Pereira, Ipiranga, Belo Horizonte"
-19.91012965427596,-43.918494176570796,98786941.0,-19.910103459972184,-43.91864952497756,Rua Mário de Andrade Gomes,Horto,Belo Horizonte,Minas Gerais,31015-065,Brasil,Horto,,Região Sudeste,"Rua Mário de Andrade Gomes, Horto, Belo Horizonte"
-19.88080085435715,-43.92306418658494,122931937.0,-19.88072145741272,-43.923013783175975,Rua Lorca,União,Belo Horizonte,Minas Gerais,31170-570,Brasil,União,,Região Sudeste,"Rua Lorca, União, Belo Horizonte"
-19.909860136738697,-43.95498954658495,164433574.0,-19.90983123085164,-43.954942125815535,Rua Jaguari,Bonfim,Belo Horizonte,Minas Gerais,30710-010,Brasil,Bonfim,,Região Sudeste,"Rua Jaguari, Bonfim, Belo Horizonte"
-19.909558486595827,-43.96230345366072,199620685.0,-19.909582675640163,-43.962297669635475,Rua Passos,Carlos Prates,Belo Horizonte,Minas Gerais,30810-190,Brasil,Carlos Prates,,Região Sudeste,"Rua Passos, Carlos Prates, Belo Horizonte"
-19.956493859139762,-43.98463681567063,132786592.0,-19.95649828439493,-43.98464942132575,Rua Cipriano de Carvalho,Cinquentenário,Belo Horizonte,Minas Gerais,30516-210,Brasil,,,Região Sudeste,"Rua Cipriano de Carvalho, Cinquentenário, Belo Horizonte"
-19.886189151170107,-43.90121667008775,134377916.0,-19.886205909462813,-43.901215459290626,Rua Porto Seguro,Nova Vista,Belo Horizonte,Minas Gerais,34710,Brasil,Nova Vista,,Região Sudeste,"Rua Porto Seguro, Nova Vista, Belo Horizonte"
-19.885225873447727,-43.95556804578099,98811593.0,-19.885188404874075,-43.955580891513115,Rua João Luiz de Campos,Nova Cachoeirinha,Belo Horizonte,Minas Gerais,31250-330,Brasil,Nova Cachoeirinha,,Região Sudeste,"Rua João Luiz de Campos, Nova Cachoeirinha, Belo Horizonte"
-19.934413087427046,-43.935594837703704,41441239.0,-19.9341557,-43.9354474,Rua Santa Rita Durão,Savassi,Belo Horizonte,Minas Gerais,30140-111,Brasil,Savassi,,Região Sudeste,"Rua Santa Rita Durão, Savassi, Belo Horizonte"
-19.934716978363987,-43.945951156971645,45589620.0,-19.934818029166667,-43.94558031666666,Rua Curitiba,Lourdes,Belo Horizonte,Minas Gerais,30170-122,Brasil,Lourdes,2521.0,Região Sudeste,"Rua Curitiba, 2521, Lourdes, Belo Horizonte"
-19.93230599261911,-43.939250852914114,121415202.0,-19.93233815,-43.93896585697911,Avenida Bias Fortes,Savassi,Belo Horizonte,Minas Gerais,30140-010,Brasil,Lourdes,,Região Sudeste,"Avenida Bias Fortes, Savassi, Belo Horizonte"
-19.914518658507767,-43.97176600982721,155794884.0,-19.914529129203,-43.97183022011755,Rua Jacarina,Padre Eustáquio,Belo Horizonte,Minas Gerais,30720-180,Brasil,,,Região Sudeste,"Rua Jacarina, Padre Eustáquio, Belo Horizonte"
-19.936120745925837,-43.96598117403964,132052395.0,-19.936045252427792,-43.96592576747449,Rua Irídio,Grajaú,Belo Horizonte,Minas Gerais,30430-180,Brasil,,,Região Sudeste,"Rua Irídio, Grajaú, Belo Horizonte"
-19.931928530636977,-43.981136852845296,216932688.0,-19.93184901898402,-43.98083679022751,Rua Zurick,Nova Suíça,Belo Horizonte,Minas Gerais,30421-067,Brasil,,,Região Sudeste,"Rua Zurick, Nova Suíça, Belo Horizonte"
-19.89825816718954,-43.9847378164899,180422706.0,-19.8983317,-43.9844984,Rua Flor da Verdade,Vila Jardim Montanhês,Belo Horizonte,Minas Gerais,30750-170,Brasil,,,Região Sudeste,"Rua Flor da Verdade, Vila Jardim Montanhês, Belo Horizonte"
-19.920628784620558,-43.920364997217455,120935455.0,-19.92078695,-43.92007204407357,Avenida dos Andradas,Santa Efigênia,Belo Horizonte,Minas Gerais,30110-014,Brasil,Santa Efigênia,3000.0,Região Sudeste,"Avenida dos Andradas, 3000, Santa Efigênia, Belo Horizonte"
-19.902015232903334,-43.92321221100065,97534372.0,-19.902071728948524,-43.92323189999213,Rua Oswaldo Ferraz,Sagrada Família,Belo Horizonte,Minas Gerais,30140-030,Brasil,,,Região Sudeste,"Rua Oswaldo Ferraz, Sagrada Família, Belo Horizonte"
-19.95723381929614,-43.964945873160936,241434449.0,-19.95711914302512,-43.9644721168169,Rua Geraldo Vasconcelos,Estoril,Belo Horizonte,Minas Gerais,30494-080,Brasil,,,Região Sudeste,"Rua Geraldo Vasconcelos, Estoril, Belo Horizonte"
-19.93642557994573,-43.94241807584399,43978674.0,-19.93644451818182,-43.94242198787879,Rua Antônio de Albuquerque,Lourdes,Belo Horizonte,Minas Gerais,30160-019,Brasil,Lourdes,1302.0,Região Sudeste,"Rua Antônio de Albuquerque, 1302, Lourdes, Belo Horizonte"
-19.94911635127156,-43.909715498699455,132387177.0,-19.9459306,-43.9095197,Estrada da Ferrobel,Mangabeiras,Belo Horizonte,Minas Gerais,30220360,Brasil,,,Região Sudeste,"Estrada da Ferrobel, Mangabeiras, Belo Horizonte"
-19.953721516309958,-43.90823547075203,269515749.0,-19.9535511,-43.9077884,,Mangabeiras,Belo Horizonte,Minas Gerais,30220360,Brasil,Mangabeiras,,Região Sudeste,"Mangabeiras, Belo Horizonte"
-19.941037043883004,-43.978320085568065,100237732.0,-19.941124076292148,-43.97829823761246,Rua Poruína,Salgado Filho,Belo Horizonte,Minas Gerais,30421-351,Brasil,Salgado Filho,,Região Sudeste,"Rua Poruína, Salgado Filho, Belo Horizonte"
-19.943522247782163,-43.96853746766193,99036308.0,-19.943320209812924,-43.968588134458045,Rua Garrett,Nova Granada,Belo Horizonte,Minas Gerais,30460-620,Brasil,,,Região Sudeste,"Rua Garrett, Nova Granada, Belo Horizonte"
-19.924750517551885,-43.989638783903054,98971670.0,-19.924645784661315,-43.98955083005905,Rua Padre Pedro Evangelista,Coração Eucarístico,Belo Horizonte,Minas Gerais,30535-610,Brasil,Coração Eucarístico,,Região Sudeste,"Rua Padre Pedro Evangelista, Coração Eucarístico, Belo Horizonte"
-19.87964554540173,-43.942641036736966,99796710.0,-19.879770253830475,-43.94264539592732,Rua Paulo Timóteo do Nascimento,Santa Cruz,Belo Horizonte,Minas Gerais,31150-000,Brasil,,,Região Sudeste,"Rua Paulo Timóteo do Nascimento, Santa Cruz, Belo Horizonte"
-19.915489521967398,-43.90727127187306,33039369.0,-19.9157348,-43.9069119,Avenida Alphonsus de Guimarães,Paraíso,Belo Horizonte,Minas Gerais,30280480,Brasil,Pompéia,272.0,Região Sudeste,"Avenida Alphonsus de Guimarães, 272, Paraíso, Belo Horizonte"
-19.92347394716175,-43.902484111094026,100434632.0,-19.92343914244768,-43.902226823203094,Rua Joaquim Zenir Leite,Paraíso,Belo Horizonte,Minas Gerais,31230-010,Brasil,Baleia,,Região Sudeste,"Rua Joaquim Zenir Leite, Paraíso, Belo Horizonte"
-19.942417581874047,-43.9808268442269,101023336.0,-19.94229951226912,-43.980848771199305,Rua Conselheiro Cipriano Soares,Salgado Filho,Belo Horizonte,Minas Gerais,30421-351,Brasil,Salgado Filho,,Região Sudeste,"Rua Conselheiro Cipriano Soares, Salgado Filho, Belo Horizonte"
-19.90136580584292,-43.941924739928005,99008506.0,-19.901419869262238,-43.941906225860656,Rua Itararé,Concórdia,Belo Horizonte,Minas Gerais,31110-050,Brasil,,,Região Sudeste,"Rua Itararé, Concórdia, Belo Horizonte"
-19.92335445391218,-43.96744913428292,175143264.0,-19.923944100000003,-43.96833846550831,Rua Oeste,Calafate,Belo Horizonte,Minas Gerais,30411-320,Brasil,Prado,,Região Sudeste,"Rua Oeste, Calafate, Belo Horizonte"
-19.922123379383887,-43.90819147981618,98178391.0,-19.92224356554477,-43.90817847434593,Rua Tocaios,Paraíso,Belo Horizonte,Minas Gerais,30260-260,Brasil,Paraíso,,Região Sudeste,"Rua Tocaios, Paraíso, Belo Horizonte"
-19.90049783325661,-43.98850750030493,99507452.0,-19.900521287925027,-43.98849231839141,Rua Flor da Noite,Jardim Alvorada,Belo Horizonte,Minas Gerais,30750-060,Brasil,Jardim Alvorada,,Região Sudeste,"Rua Flor da Noite, Jardim Alvorada, Belo Horizonte"
-19.88762988299268,-43.949858069073976,268191010.0,-19.887873318261928,-43.95004442497453,Rua Itapetinga,Cachoeirinha,Belo Horizonte,Minas Gerais,31150-900,Brasil,,,Região Sudeste,"Rua Itapetinga, Cachoeirinha, Belo Horizonte"
-19.9334551094225,-43.9823407907686,211524091.0,-19.933448906745483,-43.98254975680207,Avenida Tereza Cristina,Vila Ambrosina 1ª Seção,Belo Horizonte,Minas Gerais,30421112,Brasil,,,Região Sudeste,"Avenida Tereza Cristina, Vila Ambrosina 1ª Seção, Belo Horizonte"
-19.909357320871766,-43.92256442228921,130626597.0,-19.90924853357795,-43.92254828580478,Rua Santa Bárbara,Sagrada Família,Belo Horizonte,Minas Gerais,31030-010‎,Brasil,,,Região Sudeste,"Rua Santa Bárbara, Sagrada Família, Belo Horizonte"
-19.951251976591497,-43.90879192832745,269515749.0,-19.952784794976736,-43.90709585528197,,Mangabeiras,Belo Horizonte,Minas Gerais,30220360,Brasil,Mangabeiras,,Região Sudeste,"Mangabeiras, Belo Horizonte"
-19.9052913997475,-43.962391353940156,97247792.0,-19.905358791847966,-43.96238824133521,Rua Desembargador Torres,Caiçaras,Belo Horizonte,Minas Gerais,31230-250,Brasil,Caiçaras,,Região Sudeste,"Rua Desembargador Torres, Caiçaras, Belo Horizonte"
-19.90553218881389,-43.95515851512369,96952184.0,-19.90553587539202,-43.95527673911815,Rua Euclides Andrade,Santo André,Belo Horizonte,Minas Gerais,30710-010,Brasil,Santo André,,Região Sudeste,"Rua Euclides Andrade, Santo André, Belo Horizonte"
-19.95032938851657,-43.9265899319841,99226540.0,-19.950409491721363,-43.926662135711844,Rua Penafiel,Anchieta,Belo Horizonte,Minas Gerais,30310-530,Brasil,Anchieta,,Região Sudeste,"Rua Penafiel, Anchieta, Belo Horizonte"
-19.91130651332453,-43.985017394636714,285406185.0,-19.90912355,-43.98920499954244,Avenida Dom Pedro II,Jardim Montanhês,Belo Horizonte,Minas Gerais,30750-060,Brasil,Jardim Montanhês,,Região Sudeste,"Avenida Dom Pedro II, Jardim Montanhês, Belo Horizonte"
-19.93691447307513,-43.97873117274405,216478727.0,-19.935929100000006,-43.978604519040346,Rua Lindolfo de Azevedo,Nova Suíça,Belo Horizonte,Minas Gerais,30460-050,Brasil,,345.0,Região Sudeste,"Rua Lindolfo de Azevedo, 345, Nova Suíça, Belo Horizonte"
-19.912666088045906,-43.97049030165268,213683871.0,-19.91276335,-43.970458245790866,Rua Três Pontas,Padre Eustáquio,Belo Horizonte,Minas Gerais,30700-320,Brasil,Carlos Prates,1698.0,Região Sudeste,"Rua Três Pontas, 1698, Padre Eustáquio, Belo Horizonte"
-19.88752471867718,-43.98865854352525,99463577.0,-19.887272020817907,-43.987083694367335,Rua Aluizio Davis,,Belo Horizonte,Minas Gerais,31330-572,Brasil,Ouro Preto,,Região Sudeste,"Rua Aluizio Davis, Belo Horizonte"
-19.916156963493133,-43.96677657128149,98744311.0,-19.916214408365093,-43.96698685366035,Rua Itanhandu,Carlos Prates,Belo Horizonte,Minas Gerais,30710-440,Brasil,Carlos Prates,,Região Sudeste,"Rua Itanhandu, Carlos Prates, Belo Horizonte"
-19.92992563718559,-43.94579712785363,170393115.0,-19.929939361009893,-43.94574769418964,Rua Santa Catarina,Lourdes,Belo Horizonte,Minas Gerais,30170-122,Brasil,Lourdes,,Região Sudeste,"Rua Santa Catarina, Lourdes, Belo Horizonte"
-19.96752570192338,-43.98613921211025,12299791.0,-19.9672809,-43.98593,Rua Estrela do Horizonte,Estrela do Oriente,Belo Horizonte,Minas Gerais,30580-250,Brasil,,,Região Sudeste,"Rua Estrela do Horizonte, Estrela do Oriente, Belo Horizonte"
-19.888280777674613,-43.951485301591426,156311059.0,-19.88801455569186,-43.95159710610962,Rua Aporé,Aparecida,Belo Horizonte,Minas Gerais,31250-160,Brasil,,,Região Sudeste,"Rua Aporé, Aparecida, Belo Horizonte"
-19.88905479611737,-43.972171724086174,158809061.0,-19.889086576421946,-43.972147367277316,Anel Rodoviário Celso Mello de Azevedo,Engenho Nogueira,Belo Horizonte,Minas Gerais,30775-240,Brasil,Engenho Nogueira,,Região Sudeste,"Anel Rodoviário Celso Mello de Azevedo, Engenho Nogueira, Belo Horizonte"
-19.90595306165878,-43.92532347699247,134830201.0,-19.906258631265906,-43.92536944542777,Rua Genoveva de Souza,Horto,Belo Horizonte,Minas Gerais,31030010,Brasil,Horto,,Região Sudeste,"Rua Genoveva de Souza, Horto, Belo Horizonte"
-19.892392427942067,-43.96664738404625,181636514.0,-19.892565279643424,-43.96639659689253,Rua Sargento Robson da Cruz,Caiçaras,Belo Horizonte,Minas Gerais,30775-240,Brasil,,,Região Sudeste,"Rua Sargento Robson da Cruz, Caiçaras, Belo Horizonte"
-19.89479877375701,-43.944938408167666,9120179.0,-19.8947492,-43.9441631,Rua Içá,Cachoeirinha,Belo Horizonte,Minas Gerais,31130-300,Brasil,,,Região Sudeste,"Rua Içá, Cachoeirinha, Belo Horizonte"
-19.961447782308678,-43.96635471991394,157330193.0,-19.961588057175568,-43.966340029150324,Rua Nilo Antônio Gazire,Estoril,Belo Horizonte,Minas Gerais,30494-080,Brasil,,,Região Sudeste,"Rua Nilo Antônio Gazire, Estoril, Belo Horizonte"
-19.888772551760162,-43.94307159333536,268568750.0,-19.88878591914544,-43.943073127042005,Rua Catanduva,Renascença,Belo Horizonte,Minas Gerais,31130-550,Brasil,,,Região Sudeste,"Rua Catanduva, Renascença, Belo Horizonte"
-19.966747263694074,-43.90684903601488,66819230.0,-19.9928736,-43.908512,,Ville de Montagne,,Minas Gerais,34004-817,Brasil,,,Região Sudeste,Ville de Montagne
-19.915133086136766,-43.96769171125132,98744311.0,-19.915032685929106,-43.96730396032119,Rua Itanhandu,Carlos Prates,Belo Horizonte,Minas Gerais,30710-440,Brasil,Carlos Prates,,Região Sudeste,"Rua Itanhandu, Carlos Prates, Belo Horizonte"
-19.90179890618155,-43.96336450310104,233868041.0,-19.90203545,-43.963536238402384,Avenida Américo Vespúcio,Caiçaras,Belo Horizonte,Minas Gerais,31250-810,Brasil,Caiçaras,2045.0,Região Sudeste,"Avenida Américo Vespúcio, 2045, Caiçaras, Belo Horizonte"
-19.907707781613453,-43.942551676419924,177703661.0,-19.90734905,-43.942564806100656,Rua Diamantina,Lagoinha,Belo Horizonte,Minas Gerais,31210-030,Brasil,,,Região Sudeste,"Rua Diamantina, Lagoinha, Belo Horizonte"
-19.89241987153889,-43.91283647633826,323839551.0,-19.892423208915048,-43.912851308848964,Rua Gustavo da Silveira,Ana Lúcia,Belo Horizonte,Minas Gerais,31080-057,Brasil,,,Região Sudeste,"Rua Gustavo da Silveira, Ana Lúcia, Belo Horizonte"
-19.964905427578195,-43.910171881541956,66819230.0,-19.9928736,-43.908512,,Ville de Montagne,,Minas Gerais,34004-817,Brasil,,,Região Sudeste,Ville de Montagne
-19.927207484572946,-43.90217966473818,154169502.0,-19.9283167,-43.90236536439232,Rua Nossa Senhora de Fátima,Baleia,Belo Horizonte,Minas Gerais,30285-408,Brasil,Baleia,,Região Sudeste,"Rua Nossa Senhora de Fátima, Baleia, Belo Horizonte"
-19.896872351318194,-43.92070294684231,95635036.0,-19.896963618293697,-43.920710187271936,Rua Santo Agostinho,Horto Florestal,Belo Horizonte,Minas Gerais,31035-460,Brasil,,,Região Sudeste,"Rua Santo Agostinho, Horto Florestal, Belo Horizonte"
-19.91393080652836,-43.9423161278469,109726402.0,-19.9139405,-43.9419157394947,Rua Saturnino de Brito,Centro,Belo Horizonte,Minas Gerais,30120-020,Brasil,,,Região Sudeste,"Rua Saturnino de Brito, Centro, Belo Horizonte"
-19.881586729848546,-43.98093042696385,144145757.0,-19.88131203857049,-43.98220968769823,Rua Desembargador Paula Mota,Engenho Nogueira,Belo Horizonte,Minas Gerais,31320-020,Brasil,Engenho Nogueira,,Região Sudeste,"Rua Desembargador Paula Mota, Engenho Nogueira, Belo Horizonte"
-19.944052486364573,-43.93098703989283,14506580.0,-19.9443037,-43.9316319,Rua Montes Claros,Carmo,Belo Horizonte,Minas Gerais,30330-000,Brasil,Carmo,,Região Sudeste,"Rua Montes Claros, Carmo, Belo Horizonte"
-19.95441989110111,-43.92676666118693,169998784.0,-19.954156787139624,-43.926791569109994,Avenida dos Bandeirantes,Comiteco,Belo Horizonte,Minas Gerais,30315-382,Brasil,,,Região Sudeste,"Avenida dos Bandeirantes, Comiteco, Belo Horizonte"
-19.929679695215665,-43.962955469092854,170346239.0,-19.92979572538229,-43.96293030312378,Rua Brumadinho,Prado,Belo Horizonte,Minas Gerais,30411-191,Brasil,Prado,,Região Sudeste,"Rua Brumadinho, Prado, Belo Horizonte"
-19.937947735957238,-43.94485237140769,45180495.0,-19.937845353932584,-43.94468244494382,Avenida do Contorno,Santo Antônio,Belo Horizonte,Minas Gerais,30160-038,Brasil,Santo Antônio,7259.0,Região Sudeste,"Avenida do Contorno, 7259, Santo Antônio, Belo Horizonte"
-19.914695228097948,-43.92038617577713,74203211.0,-19.913985500000006,-43.9206796,Rua Anhanguera,Santa Tereza,Belo Horizonte,Minas Gerais,31015-065,Brasil,Horto,,Região Sudeste,"Rua Anhanguera, Santa Tereza, Belo Horizonte"
-19.955734703669293,-43.96048572056997,99218978.0,-19.95574676199477,-43.96051285513647,Rua 4 de Maio,Chácara Leonina,Belo Horizonte,Minas Gerais,30494170,Brasil,,,Região Sudeste,"Rua 4 de Maio, Chácara Leonina, Belo Horizonte"
-19.946140407777726,-43.94516617555768,131244500.0,-19.946004234706702,-43.94533335346961,Rua Pitangueiras,Santo Antônio,Belo Horizonte,Minas Gerais,30350-213,Brasil,Santo Antônio,,Região Sudeste,"Rua Pitangueiras, Santo Antônio, Belo Horizonte"
-19.88290558241482,-43.934369093246794,95969345.0,-19.882944043566845,-43.93432980906546,Rua Jacuí,Ipiranga,Belo Horizonte,Minas Gerais,31160-440,Brasil,,,Região Sudeste,"Rua Jacuí, Ipiranga, Belo Horizonte"
-19.895397708068653,-43.983470287262975,141676633.0,-19.895352667155358,-43.98383047971915,Rua Engenho do Sol,,Belo Horizonte,Minas Gerais,30750-170,Brasil,,,Região Sudeste,"Rua Engenho do Sol, Belo Horizonte"
-19.882798370044128,-43.910291551890104,220496161.0,-19.882806650583664,-43.910348061897324,Rua Cassiterita,Ana Lúcia,Belo Horizonte,Minas Gerais,31080-057,Brasil,,,Região Sudeste,"Rua Cassiterita, Ana Lúcia, Belo Horizonte"
-19.913543371635683,-43.983972225372284,269223321.0,-19.91351256064133,-43.984172162806644,Rua Lorena,Vila Lorena,Belo Horizonte,Minas Gerais,30730-420,Brasil,,,Região Sudeste,"Rua Lorena, Vila Lorena, Belo Horizonte"
-19.905034090119567,-43.93553410660759,163938786.0,-19.90495076484117,-43.9355534738047,Avenida Cristiano Machado,Colégio Batista,Belo Horizonte,Minas Gerais,31110-050,Brasil,,,Região Sudeste,"Avenida Cristiano Machado, Colégio Batista, Belo Horizonte"
-19.962281601232466,-43.96986519710147,131860696.0,-19.962734286486143,-43.97004473199641,Rua Manila,Havaí,Belo Horizonte,Minas Gerais,30570350,Brasil,,,Região Sudeste,"Rua Manila, Havaí, Belo Horizonte"
-19.939598905324377,-43.915792780638476,98056833.0,-19.93960355172374,-43.91582086150141,Rua Capelinha,Vila Nossa Senhora da Conceição,Belo Horizonte,Minas Gerais,30220360,Brasil,,,Região Sudeste,"Rua Capelinha, Vila Nossa Senhora da Conceição, Belo Horizonte"
-19.9537279210015,-43.90190001072124,125830740.0,-19.9524734,-43.9050687,,Mangabeiras,Belo Horizonte,Minas Gerais,30220360,Brasil,Mangabeiras,,Região Sudeste,"Mangabeiras, Belo Horizonte"
-19.95399525739581,-43.92859400390017,169998784.0,-19.953893611403192,-43.92857758572962,Avenida dos Bandeirantes,Comiteco,Belo Horizonte,Minas Gerais,30315-382,Brasil,,,Região Sudeste,"Avenida dos Bandeirantes, Comiteco, Belo Horizonte"
-19.96279296956872,-43.92246234495421,156178276.0,-19.9628162,-43.9197001,,Mangabeiras,Belo Horizonte,Minas Gerais,30315-382,Brasil,,,Região Sudeste,"Mangabeiras, Belo Horizonte"
-19.937569837966976,-43.969343816990005,216070622.0,-19.93693835,-43.96963249291912,Avenida Silva Lobo,Calafate,Belo Horizonte,Minas Gerais,30421-280,Brasil,,1403.0,Região Sudeste,"Avenida Silva Lobo, 1403, Calafate, Belo Horizonte"
-19.937465626349887,-43.95558673591919,210074185.0,-19.937375859066,-43.95597946778651,Rua Estácio de Sá,Gutierrez,Belo Horizonte,Minas Gerais,30441-036,Brasil,Gutierrez,,Região Sudeste,"Rua Estácio de Sá, Gutierrez, Belo Horizonte"
-19.931126296566013,-43.96791555958802,98762078.0,-19.931159529294888,-43.96791699026193,Avenida Amazonas,Alto Barroca,Belo Horizonte,Minas Gerais,30421238,Brasil,,,Região Sudeste,"Avenida Amazonas, Alto Barroca, Belo Horizonte"
-19.88877695963503,-43.96395753043585,97519427.0,-19.88876952634252,-43.96396583018589,Rua Reis de Abreu,Vila Sumaré,Belo Horizonte,Minas Gerais,31250-050,Brasil,,,Região Sudeste,"Rua Reis de Abreu, Vila Sumaré, Belo Horizonte"
-19.889801845023847,-43.937207802645425,118804744.0,-19.889981436881822,-43.937228852880985,Rua Ituverava,Renascença,Belo Horizonte,Minas Gerais,31130-550,Brasil,,,Região Sudeste,"Rua Ituverava, Renascença, Belo Horizonte"
-19.89052909129111,-43.95482592638928,100227502.0,-19.890466962646858,-43.95469418318185,Rua Silveira Martins,Senhor Bom Jesus,Belo Horizonte,Minas Gerais,31250-330,Brasil,Senhor Bom Jesus,,Região Sudeste,"Rua Silveira Martins, Senhor Bom Jesus, Belo Horizonte"
-19.883662653305336,-43.961380738466474,181869322.0,-19.88382925225584,-43.961507403504065,Rua São Caetano,Ermelinda,Belo Horizonte,Minas Gerais,31255-050,Brasil,Ermelinda,,Região Sudeste,"Rua São Caetano, Ermelinda, Belo Horizonte"
-19.89811927305574,-43.91178229170777,170273574.0,-19.898133165286726,-43.911739023645744,Rua Gustavo da Silveira,Horto Florestal,Belo Horizonte,Minas Gerais,31035-340,Brasil,,,Região Sudeste,"Rua Gustavo da Silveira, Horto Florestal, Belo Horizonte"
-19.923835518718096,-43.97396749141224,109119600.0,-19.923762118748904,-43.97359478819049,Avenida Silva Lobo,Calafate,Belo Horizonte,Minas Gerais,30480240,Brasil,Calafate,,Região Sudeste,"Avenida Silva Lobo, Calafate, Belo Horizonte"
-19.929767387709106,-43.978302167819606,108569559.0,-19.929381900000006,-43.97828592540182,Avenida Amazonas,Nova Suíça,Belo Horizonte,Minas Gerais,30480-000,Brasil,,5154.0,Região Sudeste,"Avenida Amazonas, 5154, Nova Suíça, Belo Horizonte"
-19.95921624191454,-43.95917971845783,133446923.0,-19.959097521277172,-43.95918175833149,Rua Alvino de Paula,Estoril,Belo Horizonte,Minas Gerais,30494-080,Brasil,,,Região Sudeste,"Rua Alvino de Paula, Estoril, Belo Horizonte"
-19.938019992140312,-43.919282202776145,171344214.0,-19.937942279477035,-43.91926098040854,Rua Joanésia,Serra,Belo Horizonte,Minas Gerais,30240130,Brasil,Serra,,Região Sudeste,"Rua Joanésia, Serra, Belo Horizonte"
-19.95793224774502,-43.96618291137339,96205901.0,-19.958218055504013,-43.96604553705123,Rua Virgílio José Batista,Estoril,Belo Horizonte,Minas Gerais,30494-080,Brasil,,,Região Sudeste,"Rua Virgílio José Batista, Estoril, Belo Horizonte"
-19.89533910768912,-43.93732772419861,125922797.0,-19.89543452785754,-43.937270399535024,Rua Paru,Concórdia,Belo Horizonte,Minas Gerais,31130-550,Brasil,,,Região Sudeste,"Rua Paru, Concórdia, Belo Horizonte"
-19.96376385932609,-43.93608544917545,242234837.0,-19.9637886163442,-43.936046628300545,Rua José Negrão de Lima,Belvedere,Belo Horizonte,Minas Gerais,30315-382,Brasil,,,Região Sudeste,"Rua José Negrão de Lima, Belvedere, Belo Horizonte"
-19.88500053038821,-43.96869814514963,157482855.0,-19.88583744466685,-43.96789816814235,Anel Rodoviário Celso Mello de Azevedo,São Francisco,Belo Horizonte,Minas Gerais,31255-050,Brasil,São Francisco,,Região Sudeste,"Anel Rodoviário Celso Mello de Azevedo, São Francisco, Belo Horizonte"
-19.891186014980093,-43.902963668308885,268303389.0,-19.891378906910887,-43.90291830492895,Rua Doutora Libúrcia,Boa Vista,Belo Horizonte,Minas Gerais,31060-250,Brasil,Boa Vista,,Região Sudeste,"Rua Doutora Libúrcia, Boa Vista, Belo Horizonte"
-19.9550291401189,-43.98831464925861,171602426.0,-19.955261535753213,-43.988341577480725,Avenida Tereza Cristina,Betânia,Belo Horizonte,Minas Gerais,30514-510,Brasil,Betânia,,Região Sudeste,"Avenida Tereza Cristina, Betânia, Belo Horizonte"
-19.96121440793229,-43.936862682847654,279232038.0,-19.96188150997897,-43.937128715757744,Avenida Presidente Eurico Gaspar Dutra,Belvedere,Belo Horizonte,Minas Gerais,30315-382,Brasil,,,Região Sudeste,"Avenida Presidente Eurico Gaspar Dutra, Belvedere, Belo Horizonte"
-19.94411165430079,-43.94332301204303,139778695.0,-19.94406365,-43.94342844361739,Rua Mar de Espanha,Santo Antônio,Belo Horizonte,Minas Gerais,30330-240,Brasil,Santo Antônio,525.0,Região Sudeste,"Rua Mar de Espanha, 525, Santo Antônio, Belo Horizonte"
-19.905068877393038,-43.985431464883696,212163973.0,-19.905300391392363,-43.985576382043895,Avenida Dom Pedro II,Jardim Montanhês,Belo Horizonte,Minas Gerais,30750-060,Brasil,Jardim Montanhês,,Região Sudeste,"Avenida Dom Pedro II, Jardim Montanhês, Belo Horizonte"
-19.94959176135075,-43.932673934252854,278041062.0,-19.949808758603503,-43.932933767326794,Avenida Uruguai,Sion,Belo Horizonte,Minas Gerais,30315-600,Brasil,,,Região Sudeste,"Avenida Uruguai, Sion, Belo Horizonte"
-19.93110514751537,-43.92561273086234,169675893.0,-19.931176902224365,-43.9253493372351,Rua Maranhão,Funcionários,Belo Horizonte,Minas Gerais,30112-020,Brasil,,,Região Sudeste,"Rua Maranhão, Funcionários, Belo Horizonte"
-19.945261315177113,-43.910972198254186,132387177.0,-19.9456104,-43.9110486,Estrada da Ferrobel,Mangabeiras,Belo Horizonte,Minas Gerais,30220360,Brasil,,,Região Sudeste,"Estrada da Ferrobel, Mangabeiras, Belo Horizonte"
-19.919901947214168,-43.93091004687764,43091368.0,-19.9198056,-43.9305441,Rua Aquiles Lobo,Floresta,Belo Horizonte,Minas Gerais,30150-150,Brasil,Centro,469.0,Região Sudeste,"Rua Aquiles Lobo, 469, Floresta, Belo Horizonte"
-19.964160005232294,-43.97076025005474,241719787.0,-19.96413965599697,-43.97073231404504,Avenida Costa do Marfim,Havaí,Belo Horizonte,Minas Gerais,30570350,Brasil,,,Região Sudeste,"Avenida Costa do Marfim, Havaí, Belo Horizonte"
-19.91952929032754,-43.904484302601844,100636240.0,-19.919407932370373,-43.90449602911932,Rua Benjamin Quadros,Paraíso,Belo Horizonte,Minas Gerais,30260-270,Brasil,Paraíso,,Região Sudeste,"Rua Benjamin Quadros, Paraíso, Belo Horizonte"
-19.92210460007516,-43.98974777147093,165746011.0,-19.9221274,-43.989777134571426,Avenida Dom José Gaspar,Coração Eucarístico,Belo Horizonte,Minas Gerais,30535-610,Brasil,Coração Eucarístico,290.0,Região Sudeste,"Avenida Dom José Gaspar, 290, Coração Eucarístico, Belo Horizonte"
-19.95164651332801,-43.91637248722875,138345674.0,-19.9516993,-43.9164466,Avenida Agulhas Negras,Mangabeiras,Belo Horizonte,Minas Gerais,30210-550,Brasil,Mangabeiras,,Região Sudeste,"Avenida Agulhas Negras, Mangabeiras, Belo Horizonte"
-19.96110665667896,-43.90334276005185,71692437.0,-19.9608372,-43.9045948,Avenida José do Patrocínio Fontes,Mangabeiras,Belo Horizonte,Minas Gerais,30315-382,Brasil,Mangabeiras,,Região Sudeste,"Avenida José do Patrocínio Fontes, Mangabeiras, Belo Horizonte"
-19.89360567633259,-43.93297627077597,99352653.0,-19.893634550868,-43.93272392944507,Rua Helium,Nova Floresta,Belo Horizonte,Minas Gerais,31140-270,Brasil,Nova Floresta,,Região Sudeste,"Rua Helium, Nova Floresta, Belo Horizonte"
-19.903955148159255,-43.97432235090201,193406299.0,-19.903855,-43.97414665,Rua Nadir,Caiçara-Adelaide,Belo Horizonte,Minas Gerais,30770-410,Brasil,Caiçara-Adelaide,225.0,Região Sudeste,"Rua Nadir, 225, Caiçara-Adelaide, Belo Horizonte"
-19.87880694600797,-43.93064878059815,266041185.0,-19.87781645,-43.93143118688522,Rua Wilson Modesto Ribeiro,Ipiranga,Belo Horizonte,Minas Gerais,31160-440,Brasil,,,Região Sudeste,"Rua Wilson Modesto Ribeiro, Ipiranga, Belo Horizonte"
-19.900689732721023,-43.956774334116176,278548247.0,-19.900695918412787,-43.956848195951565,Rua Leopoldino de Oliveira,Nova Esperança,Belo Horizonte,Minas Gerais,31230-250,Brasil,,,Região Sudeste,"Rua Leopoldino de Oliveira, Nova Esperança, Belo Horizonte"
-19.928815241608106,-43.92526169510913,14658932.0,-19.9285111,-43.9261893,Avenida Carandaí,Santa Efigênia,Belo Horizonte,Minas Gerais,30140001,Brasil,São Lucas,,Região Sudeste,"Avenida Carandaí, Santa Efigênia, Belo Horizonte"
-19.941164101901627,-43.926517984184244,119903773.0,-19.941122670482137,-43.926716434957314,Rua Albita,Cruzeiro,Belo Horizonte,Minas Gerais,30310-160,Brasil,Cruzeiro,,Região Sudeste,"Rua Albita, Cruzeiro, Belo Horizonte"
-19.929880914192964,-43.976449842404975,107746032.0,-19.92975295,-43.976250333593036,Rua Tobias Barreto,Nova Suíça,Belo Horizonte,Minas Gerais,30421-169,Brasil,,,Região Sudeste,"Rua Tobias Barreto, Nova Suíça, Belo Horizonte"
-19.96513047067303,-43.91148676726076,156178276.0,-19.9653662,-43.916633,,Mangabeiras,Belo Horizonte,Minas Gerais,30315-382,Brasil,,,Região Sudeste,"Mangabeiras, Belo Horizonte"
-19.934901156854718,-43.91517674691672,122336228.0,-19.93512900939016,-43.9154172228613,Rua Doutor Camilo Antônio Nogueira,Vila Nossa Senhora da Conceição,Belo Horizonte,Minas Gerais,30220360,Brasil,,,Região Sudeste,"Rua Doutor Camilo Antônio Nogueira, Vila Nossa Senhora da Conceição, Belo Horizonte"
-19.935302152941002,-43.98065946921094,100776627.0,-19.935393310595085,-43.98063624194049,Rua João Caetano,Vila Ambrosina 1ª Seção,Belo Horizonte,Minas Gerais,30421112,Brasil,,,Região Sudeste,"Rua João Caetano, Vila Ambrosina 1ª Seção, Belo Horizonte"
-19.94365143887489,-43.95158383611678,98665421.0,-19.94369226865943,-43.95158615243976,Rua Anita Garibaldi,Coração de Jesus,Belo Horizonte,Minas Gerais,30350180,Brasil,,,Região Sudeste,"Rua Anita Garibaldi, Coração de Jesus, Belo Horizonte"
-19.887656347281204,-43.950703225781574,96671602.0,-19.887624740676824,-43.950717086025264,Rua Aporé,Cachoeirinha,Belo Horizonte,Minas Gerais,31150-900,Brasil,,,Região Sudeste,"Rua Aporé, Cachoeirinha, Belo Horizonte"
-19.904569656547906,-43.922634433191355,99191459.0,-19.904634346456426,-43.92261543783416,Rua Volta Grande,Sagrada Família,Belo Horizonte,Minas Gerais,31030010,Brasil,,,Região Sudeste,"Rua Volta Grande, Sagrada Família, Belo Horizonte"
-19.95270369902898,-43.9715406591876,160312081.0,-19.95266481062204,-43.97129958317084,Rua João Paulo II,Vila Ventosa 1ª Seção,Belo Horizonte,Minas Gerais,30555-270,Brasil,,,Região Sudeste,"Rua João Paulo II, Vila Ventosa 1ª Seção, Belo Horizonte"
-19.9519775006402,-43.986211421739185,100065694.0,-19.952259956596297,-43.986293934603125,Rua Fernando Alves,Nova Cintra,Belo Horizonte,Minas Gerais,30516-210,Brasil,,,Região Sudeste,"Rua Fernando Alves, Nova Cintra, Belo Horizonte"
-19.933176291579798,-43.98321183157177,235277378.0,-19.93316244693765,-43.98318145421942,Beco Machado,Vila Guaratã,Belo Horizonte,Minas Gerais,30421112,Brasil,,,Região Sudeste,"Beco Machado, Vila Guaratã, Belo Horizonte"
-19.88074389101395,-43.924815047983735,98707541.0,-19.88064529856217,-43.924957742872266,Rua Lincoln,União,Belo Horizonte,Minas Gerais,31920-012,Brasil,União,,Região Sudeste,"Rua Lincoln, União, Belo Horizonte"
-19.955632692788686,-43.975352724607106,100060984.0,-19.955556718021537,-43.97535692400193,Rua da Represa,Havaí,Belo Horizonte,Minas Gerais,30570360,Brasil,,,Região Sudeste,"Rua da Represa, Havaí, Belo Horizonte"
-19.92075742095948,-43.91681005509903,121037740.0,-19.92112835,-43.9176635071242,Avenida Churchill,Santa Efigênia,Belo Horizonte,Minas Gerais,30110-080,Brasil,Santa Efigênia,,Região Sudeste,"Avenida Churchill, Santa Efigênia, Belo Horizonte"
-19.95809524527616,-43.954760146937076,280982877.0,-19.95833227523942,-43.95473781209584,Rua Fernando Franca Campos,São Bento,Belo Horizonte,Minas Gerais,30494-310,Brasil,São Bento,,Região Sudeste,"Rua Fernando Franca Campos, São Bento, Belo Horizonte"
-19.93856866351663,-43.97452357147056,99821885.0,-19.938481449299605,-43.97456869905072,Rua Gávea,Vila Barão Homem de Melo 2ª Seção,Belo Horizonte,Minas Gerais,30421-345,Brasil,,,Região Sudeste,"Rua Gávea, Vila Barão Homem de Melo 2ª Seção, Belo Horizonte"
-19.94875287279386,-43.96788128748416,155752625.0,-19.94876783702211,-43.96788033171885,Rua Brás,Vila Santa Sofia,Belo Horizonte,Minas Gerais,30431-420,Brasil,,,Região Sudeste,"Rua Brás, Vila Santa Sofia, Belo Horizonte"
-19.92280959863461,-43.91259374684503,127332269.0,-19.9222479,-43.912261057738036,Avenida Mem de Sá,Santa Efigênia,Belo Horizonte,Minas Gerais,30260-270,Brasil,Paraíso,,Região Sudeste,"Avenida Mem de Sá, Santa Efigênia, Belo Horizonte"
-19.88874716543053,-43.97567816303338,97234207.0,-19.88860864307861,-43.97741659720051,Rua Professor José Vieira de Mendonça,Engenho Nogueira,Belo Horizonte,Minas Gerais,31310-260,Brasil,Engenho Nogueira,,Região Sudeste,"Rua Professor José Vieira de Mendonça, Engenho Nogueira, Belo Horizonte"
-19.929193122622213,-43.93928814152,169292143.0,-19.92938682149436,-43.939335268369426,Rua Bernardo Guimarães,Lourdes,Belo Horizonte,Minas Gerais,30160-907,Brasil,Lourdes,,Região Sudeste,"Rua Bernardo Guimarães, Lourdes, Belo Horizonte"
-19.90388364332468,-43.921549021328325,224420911.0,-19.903549285681425,-43.92149489886721,Rua Conde Ribeiro do Vale,Sagrada Família,Belo Horizonte,Minas Gerais,31030010,Brasil,,,Região Sudeste,"Rua Conde Ribeiro do Vale, Sagrada Família, Belo Horizonte"
-19.933760188583275,-43.97162486404318,215091791.0,-19.934748100000004,-43.97117959301176,Avenida Silva Lobo,Alto Barroca,Belo Horizonte,Minas Gerais,30431020,Brasil,,,Região Sudeste,"Avenida Silva Lobo, Alto Barroca, Belo Horizonte"
-19.965322403493406,-43.92192736260922,156178276.0,-19.9652616,-43.9205691,,Mangabeiras,Belo Horizonte,Minas Gerais,30315-382,Brasil,,,Região Sudeste,"Mangabeiras, Belo Horizonte"
-19.92558342441672,-43.913303923005714,243973587.0,-19.92590835,-43.91310015803937,Rua Aníbal Benévolo,Santa Efigênia,Belo Horizonte,Minas Gerais,30260-250,Brasil,Santa Efigênia,404.0,Região Sudeste,"Rua Aníbal Benévolo, 404, Santa Efigênia, Belo Horizonte"
-19.951362992782585,-43.957724223250075,190946788.0,-19.95137454805469,-43.957726180668075,Avenida Acesso Bloco 3,Conjunto Santa Maria,Belo Horizonte,Minas Gerais,30380-430,Brasil,,,Região Sudeste,"Avenida Acesso Bloco 3, Conjunto Santa Maria, Belo Horizonte"
-19.95616289009301,-43.954929062642314,241668301.0,-19.956064624387864,-43.95501604069597,Rua Desembargador Melo Júnior,São Bento,Belo Horizonte,Minas Gerais,30380-430,Brasil,São Bento,,Região Sudeste,"Rua Desembargador Melo Júnior, São Bento, Belo Horizonte"
-19.964492061021584,-43.96678631843591,132159406.0,-19.964505114489537,-43.966561354420996,Rua Áustria,Havaí,Belo Horizonte,Minas Gerais,30455-900,Brasil,,,Região Sudeste,"Rua Áustria, Havaí, Belo Horizonte"
-19.937128123896716,-43.9193752046943,139329553.0,-19.936988769286984,-43.91933550814943,Rua Monte Sião,Vila Nossa Senhora da Conceição,Belo Horizonte,Minas Gerais,30240130,Brasil,,,Região Sudeste,"Rua Monte Sião, Vila Nossa Senhora da Conceição, Belo Horizonte"
-19.938319982660595,-43.97204128940058,174443990.0,-19.938535963341106,-43.971984173597576,Rua Coruripe,Nova Granada,Belo Horizonte,Minas Gerais,30421-345,Brasil,,,Região Sudeste,"Rua Coruripe, Nova Granada, Belo Horizonte"
-19.941498525865306,-43.94475564204687,98110479.0,-19.941752108145828,-43.94480814199419,Rua Rafael Magalhães,Santo Antônio,Belo Horizonte,Minas Gerais,30330-240,Brasil,Santo Antônio,,Região Sudeste,"Rua Rafael Magalhães, Santo Antônio, Belo Horizonte"
-19.93164573059117,-43.95837574993832,98226264.0,-19.931553102940907,-43.9583552491984,Rua Holanda Lima,Gutierrez,Belo Horizonte,Minas Gerais,30441-014,Brasil,Gutierrez,,Região Sudeste,"Rua Holanda Lima, Gutierrez, Belo Horizonte"
-19.907996973883744,-43.98373568140372,162976416.0,-19.9079303,-43.9836315,Avenida Dom Pedro II,Jardim Montanhês,Belo Horizonte,Minas Gerais,30750-060,Brasil,Jardim Montanhês,,Região Sudeste,"Avenida Dom Pedro II, Jardim Montanhês, Belo Horizonte"
-19.92599981059828,-43.955654677655886,170786916.0,-19.92671634410575,-43.95580765812233,Rua Gonçalves Dias,Barro Preto,Belo Horizonte,Minas Gerais,30140-093,Brasil,,,Região Sudeste,"Rua Gonçalves Dias, Barro Preto, Belo Horizonte"
-19.95234850196973,-43.92079362892636,97339055.0,-19.95229046029218,-43.920874837239026,Rua Adolfo Radice,Comiteco,Belo Horizonte,Minas Gerais,30210-550,Brasil,,,Região Sudeste,"Rua Adolfo Radice, Comiteco, Belo Horizonte"
-19.96708266605249,-43.965099951663724,242410043.0,-19.967151723541907,-43.9651428289766,Rua Heitor Menin,Estoril,Belo Horizonte,Minas Gerais,30455-900,Brasil,,,Região Sudeste,"Rua Heitor Menin, Estoril, Belo Horizonte"
-19.94702248165772,-43.97831943832558,171474608.0,-19.947034842318846,-43.978314524428434,Avenida Frei Andreoni,Salgado Filho,Belo Horizonte,Minas Gerais,30550000,Brasil,Salgado Filho,,Região Sudeste,"Avenida Frei Andreoni, Salgado Filho, Belo Horizonte"
-19.90263441778009,-43.918509349198466,97245462.0,-19.902394668086085,-43.918448284195335,Rua São Bento,Sagrada Família,Belo Horizonte,Minas Gerais,31035-340,Brasil,,,Região Sudeste,"Rua São Bento, Sagrada Família, Belo Horizonte"
-19.940761927437464,-43.909456289509365,121721748.0,-19.940715694218003,-43.90942020358094,Rua Bandonion,Vila Marçola,Belo Horizonte,Minas Gerais,30220360,Brasil,,,Região Sudeste,"Rua Bandonion, Vila Marçola, Belo Horizonte"
-19.962233340217853,-43.936212068569134,97299904.0,-19.96240946551673,-43.935953117024575,Rua Desembargador Assis Rocha,Belvedere,Belo Horizonte,Minas Gerais,30315-382,Brasil,,,Região Sudeste,"Rua Desembargador Assis Rocha, Belvedere, Belo Horizonte"
-19.889249736889784,-43.940153374627116,98678126.0,-19.889069853879747,-43.94013511476175,Rua Catanduva,Renascença,Belo Horizonte,Minas Gerais,31130-550,Brasil,,,Região Sudeste,"Rua Catanduva, Renascença, Belo Horizonte"
-19.89447226131658,-43.91480632859084,159089000.0,-19.8946708,-43.914447653403776,Rua Gustavo da Silveira,Horto Florestal,Belo Horizonte,Minas Gerais,31170-000,Brasil,,,Região Sudeste,"Rua Gustavo da Silveira, Horto Florestal, Belo Horizonte"
-19.945444857242524,-43.98183765923497,19251963.0,-19.9454753,-43.9818786,Rua Divisa Nova,Salgado Filho,Belo Horizonte,Minas Gerais,30510400,Brasil,Salgado Filho,,Região Sudeste,"Rua Divisa Nova, Salgado Filho, Belo Horizonte"
-19.884081850066927,-43.98173214669285,99030130.0,-19.885002385220734,-43.98203764519437,Rua José Faria Tavares,Engenho Nogueira,Belo Horizonte,Minas Gerais,31310-260,Brasil,Engenho Nogueira,,Região Sudeste,"Rua José Faria Tavares, Engenho Nogueira, Belo Horizonte"
-19.944857105681013,-43.97165442458048,240096459.0,-19.94472607893384,-43.971419857941505,Rua Gama Cerqueira,Vila Barão Homem de Melo 1ª Seção,Belo Horizonte,Minas Gerais,30460-670,Brasil,,,Região Sudeste,"Rua Gama Cerqueira, Vila Barão Homem de Melo 1ª Seção, Belo Horizonte"
-19.943293694927775,-43.94194272455384,44664686.0,-19.943171265517236,-43.942338690804604,Rua Carangola,Santo Antônio,Belo Horizonte,Minas Gerais,30330-240,Brasil,Santo Antônio,419.0,Região Sudeste,"Rua Carangola, 419, Santo Antônio, Belo Horizonte"
-19.87871030259405,-43.96619559166784,284677463.0,-19.8748991,-43.963052301003465,Avenida Marechal Esperidião Rosas,Campus UFMG,Belo Horizonte,Minas Gerais,31270-020,Brasil,Campus UFMG,400.0,Região Sudeste,"Avenida Marechal Esperidião Rosas, 400, Campus UFMG, Belo Horizonte"
-19.95640236686576,-43.954515871408645,98272012.0,-19.956440827151702,-43.954450430650155,Rua Doutor Ari Ferreira,São Bento,Belo Horizonte,Minas Gerais,30380-430,Brasil,São Bento,,Região Sudeste,"Rua Doutor Ari Ferreira, São Bento, Belo Horizonte"
-19.89123794432074,-43.903818084099456,230212083.0,-19.891141823744174,-43.903836132853954,Avenida Petit,Boa Vista,Belo Horizonte,Minas Gerais,31070010,Brasil,Boa Vista,,Região Sudeste,"Avenida Petit, Boa Vista, Belo Horizonte"
-19.896805431895995,-43.951052045097114,64818530.0,-19.896784,-43.950097,Rua Jequitaí,Santo André,Belo Horizonte,Minas Gerais,31230-590,Brasil,Senhor Bom Jesus,160.0,Região Sudeste,"Rua Jequitaí, 160, Santo André, Belo Horizonte"
-19.935245022579373,-43.97534465226635,98534372.0,-19.935187997694726,-43.975338561634025,Rua João Caetano,Nova Suíça,Belo Horizonte,Minas Gerais,30421-280,Brasil,,,Região Sudeste,"Rua João Caetano, Nova Suíça, Belo Horizonte"
-19.888219974277398,-43.93084816999636,114753237.0,-19.887921855734774,-43.93096123004692,Rua Salgueiro,Nova Floresta,Belo Horizonte,Minas Gerais,31170-180,Brasil,Nova Floresta,,Região Sudeste,"Rua Salgueiro, Nova Floresta, Belo Horizonte"
-19.92202228660963,-43.98384930559229,181984416.0,-19.922393563959247,-43.98377476088343,Avenida Tereza Cristina,Coração Eucarístico,Belo Horizonte,Minas Gerais,30720-410,Brasil,Coração Eucarístico,,Região Sudeste,"Avenida Tereza Cristina, Coração Eucarístico, Belo Horizonte"
-19.95395733160469,-43.913615467621504,169598927.0,-19.953942406803453,-43.913575524643505,Rua Engenheiro Bady Salum,Mangabeiras,Belo Horizonte,Minas Gerais,30210-550,Brasil,Mangabeiras,,Região Sudeste,"Rua Engenheiro Bady Salum, Mangabeiras, Belo Horizonte"
-19.935041462395642,-43.922507721729815,171243413.0,-19.934935876863424,-43.92260355513524,Rua Monte Alegre,São Lucas,Belo Horizonte,Minas Gerais,30220-000,Brasil,,,Região Sudeste,"Rua Monte Alegre, São Lucas, Belo Horizonte"
-19.918104757416813,-43.95977777978158,155196579.0,-19.918141485426773,-43.9597724561648,Avenida Nossa Senhora de Fátima,Carlos Prates,Belo Horizonte,Minas Gerais,30411-073,Brasil,,,Região Sudeste,"Avenida Nossa Senhora de Fátima, Carlos Prates, Belo Horizonte"
-19.907767082136488,-43.94523321066622,176117746.0,-19.9079814,-43.94529045,Rua Itapecerica,Lagoinha,Belo Horizonte,Minas Gerais,31210-030,Brasil,,685.0,Região Sudeste,"Rua Itapecerica, 685, Lagoinha, Belo Horizonte"
-19.93364674047957,-43.9090690407616,156142630.0,-19.933664990492712,-43.909106561767146,Beco Paralelo,Vila Novo São Lucas,Belo Horizonte,Minas Gerais,30220360,Brasil,,,Região Sudeste,"Beco Paralelo, Vila Novo São Lucas, Belo Horizonte"
-19.953523430793872,-43.93056146970749,95872916.0,-19.95339260251257,-43.930708075449466,Rua Rubim,Sion,Belo Horizonte,Minas Gerais,30315-382,Brasil,,,Região Sudeste,"Rua Rubim, Sion, Belo Horizonte"
-19.888863810108496,-43.96017625126567,167889895.0,-19.88878125,-43.960107770139025,Rua Santa Josefina,Aparecida 7ª Seção,Belo Horizonte,Minas Gerais,31250-050,Brasil,Ermelinda,,Região Sudeste,"Rua Santa Josefina, Aparecida 7ª Seção, Belo Horizonte"
-19.93646417472861,-43.979837983842046,98963264.0,-19.93650190245946,-43.979949385764655,Rua Darcy Vargas,Nova Suíça,Belo Horizonte,Minas Gerais,30421112,Brasil,,,Região Sudeste,"Rua Darcy Vargas, Nova Suíça, Belo Horizonte"
-19.922501419863966,-43.925861707556216,121857726.0,-19.9226865,-43.926048512711496,Rua Ceará,Santa Efigênia,Belo Horizonte,Minas Gerais,30150-240,Brasil,,,Região Sudeste,"Rua Ceará, Santa Efigênia, Belo Horizonte"
-19.945929939633675,-43.90191892408371,132387177.0,-19.9456548,-43.90637529999999,Estrada da Ferrobel,Mangabeiras,Belo Horizonte,Minas Gerais,30220360,Brasil,,,Região Sudeste,"Estrada da Ferrobel, Mangabeiras, Belo Horizonte"
-19.933067677127926,-43.944850080659506,45589652.0,-19.93318485,-43.94487803,Rua Professor Antônio Aleixo,Lourdes,Belo Horizonte,Minas Gerais,30180-122,Brasil,Lourdes,512.0,Região Sudeste,"Rua Professor Antônio Aleixo, 512, Lourdes, Belo Horizonte"
-19.920880404458853,-43.96218992664917,180137179.0,-19.92105445,-43.96224483891228,Rua Diabase,Prado,Belo Horizonte,Minas Gerais,30411-073,Brasil,Prado,200.0,Região Sudeste,"Rua Diabase, 200, Prado, Belo Horizonte"
-19.95070563088748,-43.92216490688649,41195204.0,-19.9506235,-43.922123600000006,Avenida dos Bandeirantes,Comiteco,Belo Horizonte,Minas Gerais,30210-550,Brasil,,,Região Sudeste,"Avenida dos Bandeirantes, Comiteco, Belo Horizonte"
-19.90337335589039,-43.9689095855981,137851688.0,-19.9031662,-43.96887441019139,Rua Tietê,Caiçaras,Belo Horizonte,Minas Gerais,30770-550,Brasil,Caiçaras,292.0,Região Sudeste,"Rua Tietê, 292, Caiçaras, Belo Horizonte"
-19.909941660711333,-43.95164503793276,169528898.0,-19.909834475850825,-43.95147526361053,Rua Mariana,Bonfim,Belo Horizonte,Minas Gerais,30710-020,Brasil,Bonfim,,Região Sudeste,"Rua Mariana, Bonfim, Belo Horizonte"
-19.952788676126442,-43.940818890525186,186945294.0,-19.952783374906087,-43.94083402495181,Beco Santa Rita 1,Vila Santa Rita de Cássia,Belo Horizonte,Minas Gerais,30330000,Brasil,Aglomerado Santa Lúcia,,Região Sudeste,"Beco Santa Rita 1, Vila Santa Rita de Cássia, Belo Horizonte"
-19.89227542008217,-43.91372378516362,160469533.0,-19.8922603,-43.91321915,Rua Gustavo da Silveira,Ana Lúcia,Belo Horizonte,Minas Gerais,31170-000,Brasil,,,Região Sudeste,"Rua Gustavo da Silveira, Ana Lúcia, Belo Horizonte"
-19.89453709504244,-43.91604135391788,226432890.0,-19.89696165,-43.91520498692002,Rua Amelia de Castro,Horto Florestal,Belo Horizonte,Minas Gerais,31035-340,Brasil,,,Região Sudeste,"Rua Amelia de Castro, Horto Florestal, Belo Horizonte"
-19.8825845931605,-43.95614756140296,180613109.0,-19.88234995,-43.957010272826956,Rua Portugal E. Castro,Nova Cachoeirinha,Belo Horizonte,Minas Gerais,31250-330,Brasil,Nova Cachoeirinha,,Região Sudeste,"Rua Portugal E. Castro, Nova Cachoeirinha, Belo Horizonte"
-19.928120196547876,-43.91331554150254,98122137.0,-19.927965194013353,-43.913331158554676,Rua Paulo Brandão,Santa Efigênia,Belo Horizonte,Minas Gerais,30260-250,Brasil,Santa Efigênia,,Região Sudeste,"Rua Paulo Brandão, Santa Efigênia, Belo Horizonte"
-19.927573076795284,-43.90891327392725,133256729.0,-19.927683076847227,-43.908901952479496,Rua Cintra de Oliveira,Paraíso,Belo Horizonte,Minas Gerais,30260-270,Brasil,Baleia,,Região Sudeste,"Rua Cintra de Oliveira, Paraíso, Belo Horizonte"
-19.89045784493811,-43.91839975635088,131862298.0,-19.88989558503062,-43.919463136986465,Avenida José Cândido da Silveira,Horto Florestal,Belo Horizonte,Minas Gerais,31035-536,Brasil,,,Região Sudeste,"Avenida José Cândido da Silveira, Horto Florestal, Belo Horizonte"
-19.878251746338368,-43.93614435811894,96548734.0,-19.878114433347687,-43.936177085567465,Rua José Nicodemus,Santa Cruz,Belo Horizonte,Minas Gerais,31160-560,Brasil,,,Região Sudeste,"Rua José Nicodemus, Santa Cruz, Belo Horizonte"
-19.911000776416174,-43.98979528658639,240780285.0,-19.91107425,-43.98943497205314,Rua Camilo de Brito,Padre Eustáquio,Belo Horizonte,Minas Gerais,30730-540,Brasil,,636.0,Região Sudeste,"Rua Camilo de Brito, 636, Padre Eustáquio, Belo Horizonte"
-19.91986552164529,-43.92383290184797,132237848.0,-19.91992892276771,-43.92381698649286,Rua Conselheiro Rocha,Vila Dias,Belo Horizonte,Minas Gerais,31010-230,Brasil,,,Região Sudeste,"Rua Conselheiro Rocha, Vila Dias, Belo Horizonte"
-19.915962381226908,-43.90500864645632,154647822.0,-19.916017683440074,-43.905049733663596,Rua Juramento,Pompeia,Belo Horizonte,Minas Gerais,30280480,Brasil,Pompéia,,Região Sudeste,"Rua Juramento, Pompeia, Belo Horizonte"
-19.954682680075873,-43.914115587400616,263348612.0,-19.954762879510568,-43.91426423101056,Rua Arquiteto Rafaello Berti,Mangabeiras,Belo Horizonte,Minas Gerais,30210-550,Brasil,Mangabeiras,,Região Sudeste,"Rua Arquiteto Rafaello Berti, Mangabeiras, Belo Horizonte"
-19.938542035417754,-43.98178038452604,172187966.0,-19.938344127168108,-43.98220400305024,Rua Lagoa da Prata,Salgado Filho,Belo Horizonte,Minas Gerais,30421112,Brasil,Salgado Filho,,Região Sudeste,"Rua Lagoa da Prata, Salgado Filho, Belo Horizonte"
-19.924491859288608,-43.931356578761054,178647925.0,-19.9242572,-43.931169,Alameda Ezequiel Dias,Santa Efigênia,Belo Horizonte,Minas Gerais,30130-004,Brasil,Centro,,Região Sudeste,"Alameda Ezequiel Dias, Santa Efigênia, Belo Horizonte"
-19.962397254505177,-43.98790161622647,213393105.0,-19.962401,-43.9885594507644,Rua São Felicíssimo,Betânia,Belo Horizonte,Minas Gerais,30580-250,Brasil,,153.0,Região Sudeste,"Rua São Felicíssimo, 153, Betânia, Belo Horizonte"
-19.906434257580425,-43.98869204039218,285406185.0,-19.90912355,-43.98920499954244,Avenida Dom Pedro II,Jardim Montanhês,Belo Horizonte,Minas Gerais,30750-060,Brasil,Jardim Montanhês,,Região Sudeste,"Avenida Dom Pedro II, Jardim Montanhês, Belo Horizonte"
-19.90667253971697,-43.972260801387215,99693976.0,-19.90667454948787,-43.97219135438265,Rua Expedicionário Michel Jacob Cheib,Caiçara-Adelaide,Belo Horizonte,Minas Gerais,30770-400,Brasil,Caiçara-Adelaide,,Região Sudeste,"Rua Expedicionário Michel Jacob Cheib, Caiçara-Adelaide, Belo Horizonte"
-19.890922078070453,-43.967640618255864,284781172.0,-19.89028825,-43.9678890901101,Avenida Presidente Carlos Luz,Caiçaras,Belo Horizonte,Minas Gerais,30775-240,Brasil,Sumaré,3001.0,Região Sudeste,"Avenida Presidente Carlos Luz, 3001, Caiçaras, Belo Horizonte"
-19.88380052500269,-43.96404890197016,97685021.0,-19.883755437499506,-43.96406351679119,Anel Rodoviário Celso Mello de Azevedo,Sumaré,Belo Horizonte,Minas Gerais,30750-170,Brasil,Sumaré,,Região Sudeste,"Anel Rodoviário Celso Mello de Azevedo, Sumaré, Belo Horizonte"
-19.92524184966252,-43.93670249231207,108061129.0,-19.925240098676714,-43.93670353744898,Avenida Álvares Cabral,Boa Viagem,Belo Horizonte,Minas Gerais,30160-011,Brasil,Nossa Senhora da Boa Viagem,,Região Sudeste,"Avenida Álvares Cabral, Boa Viagem, Belo Horizonte"
-19.88010058285243,-43.91066182658263,220496161.0,-19.88010869098121,-43.91073749168794,Rua Cassiterita,Ana Lúcia,Belo Horizonte,Minas Gerais,31080-057,Brasil,,,Região Sudeste,"Rua Cassiterita, Ana Lúcia, Belo Horizonte"
-19.917088738806815,-43.90933173755155,99791401.0,-19.91703651869947,-43.90942652119904,Rua Argenita,Paraíso,Belo Horizonte,Minas Gerais,31010-330,Brasil,Paraíso,,Região Sudeste,"Rua Argenita, Paraíso, Belo Horizonte"
-19.9159095585872,-43.93669219067443,177888755.0,-19.91601745,-43.93702117704339,Avenida Santos Dumont,Centro,Belo Horizonte,Minas Gerais,30111-040,Brasil,Centro,,Região Sudeste,"Avenida Santos Dumont, Centro, Belo Horizonte"
-19.94462155448975,-43.980373605172176,99888483.0,-19.9446875464996,-43.980415110534594,Rua Silva Viana,Salgado Filho,Belo Horizonte,Minas Gerais,30550000,Brasil,Salgado Filho,,Região Sudeste,"Rua Silva Viana, Salgado Filho, Belo Horizonte"
-19.92392049685426,-43.9698366738086,179913202.0,-19.9238631,-43.96971113192364,Rua Platina,Calafate,Belo Horizonte,Minas Gerais,30411-320,Brasil,Calafate,1375.0,Região Sudeste,"Rua Platina, 1375, Calafate, Belo Horizonte"
-19.965063062917512,-43.98298192373214,99591776.0,-19.965160632492235,-43.98333989389921,Rua Ophil Ribeiro,Cinquentenário,Belo Horizonte,Minas Gerais,30570-080,Brasil,,,Região Sudeste,"Rua Ophil Ribeiro, Cinquentenário, Belo Horizonte"
-19.89712149383337,-43.984266225211286,211196588.0,-19.8971911,-43.9841294,,Jardim Alvorada,Belo Horizonte,Minas Gerais,30750-170,Brasil,,,Região Sudeste,"Jardim Alvorada, Belo Horizonte"
-19.93124037106826,-43.950658353794594,110689869.0,-19.9312586,-43.95042800790437,Rua Rodrigues Caldas,Santo Agostinho,Belo Horizonte,Minas Gerais,30170-008,Brasil,Santo Agostinho,30.0,Região Sudeste,"Rua Rodrigues Caldas, 30, Santo Agostinho, Belo Horizonte"
-19.91415656101516,-43.92378284443675,133437371.0,-19.91417201748779,-43.92361763624629,Rua Buenópolis,Santa Tereza,Belo Horizonte,Minas Gerais,31015065,Brasil,,,Região Sudeste,"Rua Buenópolis, Santa Tereza, Belo Horizonte"
-19.955160857492167,-43.903339247024896,125830740.0,-19.9528117,-43.9053067,,Mangabeiras,Belo Horizonte,Minas Gerais,30220360,Brasil,Mangabeiras,,Região Sudeste,"Mangabeiras, Belo Horizonte"
-19.962152253259827,-43.92382569854794,211616692.0,-19.9604388,-43.92668320000001,Rua Claudio Tadeu Palhares,Mangabeiras,Belo Horizonte,Minas Gerais,30315-382,Brasil,,,Região Sudeste,"Rua Claudio Tadeu Palhares, Mangabeiras, Belo Horizonte"
-19.946868443394752,-43.955327137955905,180855648.0,-19.947055,-43.95545531972948,Rua Guaicuí,Luxemburgo,Belo Horizonte,Minas Gerais,30380-350,Brasil,,660.0,Região Sudeste,"Rua Guaicuí, 660, Luxemburgo, Belo Horizonte"
-19.924944136882488,-43.94819227764105,44124802.0,-19.9242003,-43.9483258,Rua Mato Grosso,Barro Preto,Belo Horizonte,Minas Gerais,30170-111,Brasil,Barro Preto,722.0,Região Sudeste,"Rua Mato Grosso, 722, Barro Preto, Belo Horizonte"
-19.95543570323641,-43.90950883721501,97399758.0,-19.955555234920205,-43.90946254157363,Rua Arquiteto Rafaello Berti,Mangabeiras,Belo Horizonte,Minas Gerais,30210-550,Brasil,Mangabeiras,,Região Sudeste,"Rua Arquiteto Rafaello Berti, Mangabeiras, Belo Horizonte"
-19.907822516979174,-43.917705257017715,109432633.0,-19.9083526,-43.91777797482525,Rua Pitangui,Horto,Belo Horizonte,Minas Gerais,31030010,Brasil,Horto,3230.0,Região Sudeste,"Rua Pitangui, 3230, Horto, Belo Horizonte"
